{"type":"FeatureCollection","features":[{"type":"Feature","properties":{"id":"santiago-de-cali","name":"Santiago de Cali"},"geometry":{"type":"Polygon","coordinates":[[[-76.525195,3.286068],[-76.525361,3.286101],[-76.525448,3.286095],[-76.525551,3.286065],[-76.525704,3.285973],[-76.525864,3.285922],[-76.525947,3.285874],[-76.526286,3.285858],[-76.526447,3.28581],[-76.526639,3.285886],[-76.526708,3.285939],[-76.526818,3.286066],[-76.52684,3.286137],[-76.526808,3.286309],[-76.526816,3.286407],[-76.5269,3.28645],[-76.527091,3.286478],[-76.527153,3.286458],[-76.52728,3.286319],[-76.527542,3.286214],[-76.527713,3.286089],[-76.527763,3.286006],[-76.527845,3.285565],[-76.527885,3.285482],[-76.527937,3.285415],[-76.52805,3.285333],[-76.528115,3.285317],[-76.528236,3.285328],[-76.52831,3.285382],[-76.528442,3.285656],[-76.528503,3.285836],[-76.528489,3.286306],[-76.528441,3.286461],[-76.528444,3.286607],[-76.528477,3.286748],[-76.528501,3.28679],[-76.528622,3.286889],[-76.528875,3.287005],[-76.529049,3.287047],[-76.529264,3.287064],[-76.529329,3.287055],[-76.529411,3.287015],[-76.529495,3.286942],[-76.529775,3.28681],[-76.530218,3.286754],[-76.530531,3.286762],[-76.530617,3.28673],[-76.530633,3.286691],[-76.53068,3.286666],[-76.530694,3.286625],[-76.530658,3.286581],[-76.530539,3.286228],[-76.530546,3.286143],[-76.5305,3.286019],[-76.530498,3.285838],[-76.530532,3.285775],[-76.530604,3.285716],[-76.530796,3.28561],[-76.530958,3.285595],[-76.531075,3.285636],[-76.531307,3.285775],[-76.531461,3.285791],[-76.531701,3.285841],[-76.532232,3.285882],[-76.532336,3.285866],[-76.532764,3.285852],[-76.533076,3.285658],[-76.533146,3.28554],[-76.533467,3.28528],[-76.533826,3.285048],[-76.533866,3.285005],[-76.533878,3.284951],[-76.533779,3.284827],[-76.533667,3.284789],[-76.53345,3.284789],[-76.533138,3.284955],[-76.533084,3.284956],[-76.533018,3.284912],[-76.533008,3.284808],[-76.533184,3.284464],[-76.533196,3.28441],[-76.533232,3.284095],[-76.533223,3.283937],[-76.533169,3.283818],[-76.532963,3.283656],[-76.532845,3.28347],[-76.532816,3.283374],[-76.5328,3.283227],[-76.532843,3.283094],[-76.532892,3.283042],[-76.532942,3.283021],[-76.533016,3.283007],[-76.533106,3.283021],[-76.533428,3.283171],[-76.533839,3.283402],[-76.533955,3.283443],[-76.534059,3.283435],[-76.534178,3.283394],[-76.534355,3.283294],[-76.53442,3.283274],[-76.534559,3.283269],[-76.534816,3.283317],[-76.535192,3.283313],[-76.535315,3.283293],[-76.535408,3.283258],[-76.535487,3.283206],[-76.535545,3.28315],[-76.535558,3.283095],[-76.535512,3.283035],[-76.535438,3.282992],[-76.535118,3.282946],[-76.534871,3.28297],[-76.534816,3.282954],[-76.534716,3.282892],[-76.534675,3.282853],[-76.534649,3.282787],[-76.534706,3.282729],[-76.534943,3.282598],[-76.535274,3.282454],[-76.535581,3.282224],[-76.535702,3.282092],[-76.535997,3.281573],[-76.536231,3.281236],[-76.536251,3.281094],[-76.536148,3.280995],[-76.536084,3.280872],[-76.536073,3.280823],[-76.536079,3.280793],[-76.53616,3.280673],[-76.536292,3.280576],[-76.536611,3.280489],[-76.536983,3.280456],[-76.53723,3.280363],[-76.537303,3.28035],[-76.537465,3.280341],[-76.537558,3.280373],[-76.537716,3.280497],[-76.537906,3.280591],[-76.538106,3.280803],[-76.538223,3.280862],[-76.53825,3.280916],[-76.538424,3.281078],[-76.53856,3.281237],[-76.538679,3.28151],[-76.538747,3.281541],[-76.538823,3.281618],[-76.538987,3.281712],[-76.539163,3.28175],[-76.539247,3.281744],[-76.539303,3.281711],[-76.539342,3.281661],[-76.539446,3.281438],[-76.539495,3.281398],[-76.539749,3.281335],[-76.539808,3.281294],[-76.539856,3.281236],[-76.539874,3.281139],[-76.539797,3.280892],[-76.539787,3.280721],[-76.539835,3.280527],[-76.539865,3.28048],[-76.539917,3.280439],[-76.539977,3.280405],[-76.540613,3.280319],[-76.54078,3.280222],[-76.541066,3.280103],[-76.541157,3.280089],[-76.541268,3.280095],[-76.541437,3.280176],[-76.541522,3.280179],[-76.54227,3.279814],[-76.542571,3.279578],[-76.542702,3.279446],[-76.54272,3.279387],[-76.542699,3.279277],[-76.542732,3.279076],[-76.542762,3.279028],[-76.542927,3.278956],[-76.543123,3.278742],[-76.543402,3.278477],[-76.543484,3.278436],[-76.543625,3.278396],[-76.544034,3.278191],[-76.544374,3.278207],[-76.544458,3.278249],[-76.544486,3.278295],[-76.544483,3.278355],[-76.544457,3.278404],[-76.544332,3.278876],[-76.544288,3.279343],[-76.54419,3.279516],[-76.543954,3.279825],[-76.543733,3.280035],[-76.54353,3.280291],[-76.543404,3.280535],[-76.543204,3.281273],[-76.543108,3.281394],[-76.54306,3.281428],[-76.542892,3.281489],[-76.542836,3.281528],[-76.542488,3.28193],[-76.542448,3.282021],[-76.542448,3.282065],[-76.542483,3.282155],[-76.542542,3.282225],[-76.542577,3.282303],[-76.542647,3.282538],[-76.542706,3.282641],[-76.542947,3.2829],[-76.543044,3.283073],[-76.54305,3.283307],[-76.543033,3.283446],[-76.543006,3.283528],[-76.543014,3.283627],[-76.543034,3.283653],[-76.54317,3.283796],[-76.543458,3.283966],[-76.543501,3.284014],[-76.543658,3.28429],[-76.54371,3.284299],[-76.543773,3.28428],[-76.5438,3.284251],[-76.543811,3.28418],[-76.543812,3.283853],[-76.543793,3.283558],[-76.543733,3.283441],[-76.543564,3.283226],[-76.543529,3.283149],[-76.543499,3.282901],[-76.543529,3.282666],[-76.543612,3.282639],[-76.543782,3.282677],[-76.543954,3.282792],[-76.544042,3.282892],[-76.544125,3.282925],[-76.544391,3.28279],[-76.544452,3.282779],[-76.544498,3.2828],[-76.54479,3.283054],[-76.545032,3.283239],[-76.545174,3.283388],[-76.545386,3.283728],[-76.545356,3.283845],[-76.545392,3.283929],[-76.545385,3.283986],[-76.545313,3.28416],[-76.545309,3.284243],[-76.545344,3.284304],[-76.545374,3.284326],[-76.545531,3.284313],[-76.545512,3.284592],[-76.545642,3.284902],[-76.545673,3.285065],[-76.545798,3.285341],[-76.545879,3.285451],[-76.546062,3.285525],[-76.546142,3.285518],[-76.546247,3.285425],[-76.546283,3.285272],[-76.546169,3.284657],[-76.546164,3.284503],[-76.546199,3.284418],[-76.546378,3.284187],[-76.546425,3.284052],[-76.546696,3.283752],[-76.546723,3.283692],[-76.546745,3.283558],[-76.546835,3.283408],[-76.546881,3.283153],[-76.546952,3.282994],[-76.547008,3.282985],[-76.547067,3.283007],[-76.547133,3.283063],[-76.547238,3.283205],[-76.547366,3.283295],[-76.547538,3.283376],[-76.547644,3.283383],[-76.547734,3.283368],[-76.547783,3.283331],[-76.547854,3.283232],[-76.547845,3.283166],[-76.54786,3.283069],[-76.547882,3.283035],[-76.547937,3.283003],[-76.548054,3.283018],[-76.548149,3.283077],[-76.54831,3.283131],[-76.548463,3.283158],[-76.548554,3.283243],[-76.548606,3.283379],[-76.548586,3.28354],[-76.548412,3.283782],[-76.548408,3.283822],[-76.548433,3.28389],[-76.54852,3.28398],[-76.548561,3.284005],[-76.54862,3.284013],[-76.548774,3.28398],[-76.548876,3.283939],[-76.548943,3.283894],[-76.549015,3.283809],[-76.549043,3.283803],[-76.549267,3.283839],[-76.549307,3.283868],[-76.549333,3.283911],[-76.549353,3.284092],[-76.549326,3.284484],[-76.549361,3.284926],[-76.549461,3.285297],[-76.549576,3.285583],[-76.549621,3.285638],[-76.549684,3.285688],[-76.549905,3.285796],[-76.550098,3.285837],[-76.550431,3.285977],[-76.550748,3.28617],[-76.551124,3.286366],[-76.551195,3.286375],[-76.551303,3.286332],[-76.551369,3.286327],[-76.551457,3.286352],[-76.551575,3.286443],[-76.55166,3.28662],[-76.551968,3.286804],[-76.552133,3.286859],[-76.552166,3.286862],[-76.552192,3.286837],[-76.552183,3.286689],[-76.552214,3.286598],[-76.552407,3.28633],[-76.552451,3.286243],[-76.552493,3.286104],[-76.552488,3.285758],[-76.552518,3.285632],[-76.552557,3.28561],[-76.552609,3.285613],[-76.552876,3.285691],[-76.55308,3.285723],[-76.553146,3.285698],[-76.553175,3.285656],[-76.553176,3.285619],[-76.553159,3.285601],[-76.552989,3.285525],[-76.552921,3.28547],[-76.552893,3.285384],[-76.552903,3.285316],[-76.552955,3.285249],[-76.553006,3.285223],[-76.55321,3.285219],[-76.553249,3.285178],[-76.553246,3.285129],[-76.553215,3.28507],[-76.55303,3.284867],[-76.55305,3.284732],[-76.553119,3.284599],[-76.553167,3.28456],[-76.55352,3.284369],[-76.553848,3.28413],[-76.554022,3.284074],[-76.554192,3.28412],[-76.554246,3.284121],[-76.554292,3.284096],[-76.554406,3.283975],[-76.554544,3.283922],[-76.554635,3.283949],[-76.554653,3.284029],[-76.554503,3.284482],[-76.554487,3.284583],[-76.554499,3.284635],[-76.554545,3.284689],[-76.554614,3.284695],[-76.55475,3.284613],[-76.554821,3.284542],[-76.555068,3.284202],[-76.555129,3.284032],[-76.555229,3.283381],[-76.555191,3.282994],[-76.555215,3.282901],[-76.555284,3.282865],[-76.55536,3.28286],[-76.555706,3.282978],[-76.555826,3.283052],[-76.555992,3.283114],[-76.556025,3.283108],[-76.556162,3.283002],[-76.556218,3.282936],[-76.55631,3.282739],[-76.556415,3.282686],[-76.556583,3.28269],[-76.556777,3.282732],[-76.55705,3.282911],[-76.557123,3.282933],[-76.557558,3.282915],[-76.55783,3.282745],[-76.557915,3.282716],[-76.558,3.282718],[-76.558204,3.282787],[-76.558367,3.282785],[-76.558454,3.282766],[-76.558525,3.282711],[-76.558546,3.282666],[-76.558556,3.282577],[-76.558535,3.282492],[-76.558462,3.282338],[-76.55839,3.282011],[-76.5584,3.281605],[-76.558293,3.281382],[-76.558288,3.281341],[-76.558309,3.281283],[-76.558388,3.281224],[-76.558545,3.281194],[-76.559058,3.28125],[-76.559221,3.28129],[-76.55927,3.281312],[-76.559364,3.281418],[-76.559403,3.281544],[-76.559378,3.281681],[-76.559207,3.282287],[-76.559161,3.282525],[-76.559158,3.282863],[-76.559219,3.283249],[-76.559333,3.283669],[-76.559481,3.284105],[-76.559844,3.284884],[-76.559956,3.284986],[-76.560121,3.285212],[-76.560191,3.285336],[-76.560301,3.28545],[-76.560865,3.285767],[-76.561281,3.285872],[-76.561437,3.285941],[-76.561561,3.286019],[-76.561664,3.286125],[-76.561722,3.286228],[-76.561849,3.286357],[-76.56194,3.286418],[-76.561985,3.286566],[-76.562163,3.28679],[-76.562251,3.28686],[-76.562395,3.286876],[-76.562613,3.287058],[-76.562797,3.28709],[-76.562862,3.287075],[-76.563039,3.286978],[-76.563297,3.286754],[-76.563343,3.28668],[-76.563545,3.286538],[-76.56361,3.286379],[-76.563661,3.286357],[-76.563738,3.286371],[-76.563931,3.286462],[-76.563982,3.286504],[-76.564024,3.286571],[-76.564053,3.286729],[-76.564121,3.286914],[-76.564191,3.28702],[-76.56438,3.287164],[-76.564427,3.287252],[-76.564427,3.287349],[-76.564399,3.28742],[-76.564312,3.287505],[-76.564293,3.287547],[-76.564296,3.287645],[-76.564324,3.287727],[-76.564407,3.287834],[-76.564466,3.287883],[-76.564591,3.28794],[-76.56484,3.288134],[-76.564854,3.288177],[-76.564845,3.28822],[-76.564789,3.288292],[-76.564794,3.288383],[-76.564969,3.288784],[-76.565049,3.288886],[-76.565105,3.289044],[-76.56521,3.289153],[-76.565715,3.28977],[-76.565705,3.289829],[-76.565668,3.289872],[-76.565351,3.290043],[-76.565291,3.290149],[-76.56528,3.290199],[-76.565294,3.290291],[-76.565364,3.290423],[-76.565382,3.290505],[-76.565379,3.290894],[-76.565458,3.290932],[-76.565646,3.290922],[-76.565735,3.290864],[-76.565808,3.290847],[-76.565921,3.290893],[-76.565998,3.290954],[-76.566011,3.291066],[-76.565987,3.291135],[-76.565892,3.291294],[-76.565787,3.291347],[-76.565683,3.291332],[-76.565464,3.291384],[-76.565433,3.291405],[-76.565351,3.291527],[-76.565334,3.291583],[-76.565334,3.291676],[-76.56539,3.291758],[-76.565494,3.291816],[-76.56559,3.291895],[-76.565843,3.292017],[-76.565956,3.292118],[-76.566137,3.292354],[-76.5662,3.292544],[-76.566273,3.292906],[-76.566376,3.293095],[-76.566418,3.293263],[-76.566483,3.293368],[-76.566688,3.293558],[-76.566735,3.293661],[-76.566739,3.293718],[-76.566783,3.293782],[-76.566857,3.293823],[-76.567006,3.293855],[-76.567122,3.293919],[-76.567254,3.293934],[-76.567328,3.294059],[-76.567313,3.294127],[-76.567324,3.294241],[-76.5673,3.29429],[-76.56723,3.294347],[-76.567125,3.294384],[-76.566984,3.294495],[-76.566789,3.29454],[-76.566723,3.294532],[-76.566526,3.2944],[-76.566465,3.294409],[-76.566424,3.294461],[-76.5664,3.294529],[-76.566393,3.294605],[-76.566411,3.294684],[-76.566465,3.294753],[-76.566537,3.294801],[-76.566591,3.294868],[-76.566602,3.294953],[-76.566685,3.295131],[-76.566951,3.295358],[-76.567212,3.295789],[-76.567207,3.295905],[-76.567149,3.296031],[-76.567049,3.296176],[-76.566891,3.29635],[-76.566303,3.296916],[-76.566232,3.297012],[-76.566105,3.297278],[-76.566072,3.297417],[-76.566082,3.297621],[-76.566298,3.298415],[-76.566392,3.298676],[-76.56656,3.298977],[-76.566761,3.299126],[-76.566787,3.29917],[-76.566798,3.299246],[-76.567226,3.299489],[-76.567286,3.299552],[-76.567356,3.299597],[-76.567749,3.299692],[-76.567861,3.29971],[-76.568108,3.299648],[-76.568491,3.29947],[-76.568708,3.299464],[-76.569064,3.299423],[-76.569259,3.299493],[-76.569438,3.299593],[-76.569555,3.299689],[-76.569656,3.299729],[-76.570134,3.299778],[-76.570304,3.299784],[-76.570566,3.299766],[-76.57078,3.299855],[-76.57099,3.300033],[-76.571103,3.300159],[-76.571311,3.300485],[-76.571352,3.300689],[-76.571382,3.300754],[-76.571439,3.300807],[-76.571596,3.30089],[-76.571662,3.30096],[-76.571691,3.301023],[-76.571777,3.30113],[-76.57188,3.301311],[-76.571924,3.301436],[-76.571966,3.301604],[-76.571959,3.301733],[-76.571998,3.301856],[-76.572164,3.302119],[-76.572245,3.302169],[-76.57226,3.302263],[-76.572326,3.302395],[-76.572465,3.302545],[-76.572549,3.302602],[-76.572661,3.302635],[-76.572832,3.302651],[-76.572905,3.302652],[-76.573082,3.302565],[-76.573226,3.302531],[-76.57373,3.302586],[-76.574105,3.302716],[-76.574714,3.302897],[-76.574949,3.302951],[-76.575073,3.303006],[-76.575136,3.303062],[-76.575211,3.303163],[-76.575259,3.303362],[-76.57529,3.303427],[-76.575342,3.303497],[-76.57551,3.303616],[-76.575625,3.303736],[-76.575699,3.303743],[-76.575729,3.303719],[-76.575772,3.303648],[-76.575842,3.303452],[-76.575942,3.303331],[-76.576203,3.303178],[-76.576492,3.3031],[-76.576812,3.303095],[-76.577124,3.303031],[-76.577233,3.303064],[-76.577294,3.303104],[-76.577315,3.303139],[-76.577354,3.303492],[-76.577403,3.303657],[-76.577504,3.303873],[-76.577536,3.303909],[-76.577571,3.303928],[-76.57781,3.303932],[-76.57797,3.303988],[-76.578194,3.304196],[-76.578309,3.304272],[-76.578481,3.304345],[-76.57858,3.304336],[-76.578797,3.304161],[-76.579036,3.304123],[-76.579306,3.30393],[-76.579584,3.303907],[-76.57983,3.303765],[-76.579897,3.303753],[-76.580154,3.3038],[-76.580456,3.303996],[-76.580513,3.304063],[-76.580562,3.304211],[-76.580622,3.304295],[-76.580619,3.304336],[-76.580551,3.304444],[-76.580414,3.30452],[-76.580406,3.304544],[-76.580425,3.304575],[-76.580562,3.304661],[-76.58068,3.304712],[-76.58083,3.304872],[-76.580843,3.304976],[-76.580816,3.305124],[-76.580888,3.305452],[-76.580928,3.30555],[-76.580946,3.305668],[-76.580955,3.306054],[-76.580901,3.306232],[-76.580761,3.30654],[-76.580761,3.306799],[-76.580771,3.306857],[-76.580893,3.307074],[-76.580969,3.30726],[-76.581149,3.307342],[-76.581258,3.307473],[-76.581401,3.307545],[-76.581407,3.307673],[-76.581359,3.30806],[-76.581396,3.308378],[-76.581434,3.308503],[-76.581512,3.308576],[-76.581595,3.308604],[-76.581687,3.308609],[-76.582085,3.308522],[-76.582525,3.308552],[-76.582989,3.308764],[-76.583154,3.308805],[-76.583363,3.308824],[-76.583526,3.308883],[-76.583634,3.308981],[-76.58375,3.30903],[-76.583911,3.309027],[-76.584007,3.308993],[-76.584151,3.30887],[-76.584395,3.308619],[-76.584488,3.308552],[-76.584745,3.308429],[-76.584934,3.308382],[-76.585086,3.308366],[-76.585712,3.308492],[-76.586075,3.30859],[-76.586236,3.308655],[-76.586469,3.308788],[-76.586674,3.308792],[-76.586966,3.308757],[-76.587101,3.308795],[-76.587189,3.308866],[-76.587405,3.308902],[-76.587659,3.308896],[-76.588302,3.308826],[-76.58855,3.308738],[-76.588695,3.30866],[-76.588878,3.308222],[-76.588991,3.30808],[-76.589448,3.307244],[-76.589574,3.307126],[-76.589884,3.307021],[-76.590441,3.307074],[-76.590808,3.307034],[-76.590885,3.307044],[-76.591038,3.307122],[-76.591077,3.307184],[-76.591223,3.30732],[-76.591338,3.307398],[-76.591523,3.307432],[-76.591788,3.307418],[-76.591846,3.30743],[-76.592347,3.307637],[-76.592487,3.307717],[-76.592654,3.307747],[-76.59324,3.307764],[-76.5938,3.307813],[-76.594325,3.307985],[-76.594502,3.307894],[-76.59485,3.307795],[-76.59519,3.30772],[-76.595633,3.307685],[-76.59575,3.307696],[-76.596215,3.307959],[-76.596481,3.308198],[-76.596695,3.308311],[-76.597157,3.308437],[-76.597377,3.308473],[-76.597579,3.308422],[-76.59778,3.308407],[-76.598334,3.308493],[-76.598554,3.308503],[-76.598846,3.308444],[-76.59917,3.308412],[-76.59979,3.308428],[-76.600093,3.308375],[-76.600395,3.308257],[-76.600535,3.30823],[-76.600554,3.308238],[-76.600634,3.308211],[-76.600838,3.308192],[-76.600965,3.308209],[-76.60111,3.308176],[-76.601257,3.308096],[-76.60141,3.308046],[-76.601628,3.307937],[-76.602188,3.307554],[-76.60227,3.307531],[-76.602479,3.307578],[-76.602627,3.307642],[-76.602933,3.307904],[-76.603132,3.308022],[-76.603375,3.30805],[-76.603509,3.308095],[-76.603906,3.308184],[-76.604231,3.308518],[-76.604498,3.308641],[-76.604858,3.30869],[-76.60518,3.308509],[-76.605447,3.308483],[-76.606033,3.308524],[-76.60642,3.308576],[-76.606622,3.308623],[-76.606741,3.308694],[-76.606959,3.309109],[-76.607008,3.309475],[-76.607469,3.31045],[-76.607857,3.310986],[-76.608213,3.311332],[-76.608484,3.311541],[-76.608801,3.31168],[-76.609096,3.311775],[-76.610084,3.31198],[-76.610304,3.311991],[-76.610636,3.311959],[-76.610947,3.31197],[-76.611118,3.311959],[-76.611225,3.311938],[-76.61159,3.311787],[-76.611879,3.311636],[-76.612436,3.311474],[-76.612683,3.31142],[-76.612886,3.311334],[-76.613347,3.311033],[-76.613615,3.310882],[-76.613915,3.310677],[-76.61413,3.310569],[-76.61429,3.310537],[-76.614419,3.310462],[-76.614655,3.310171],[-76.61488,3.309955],[-76.615062,3.309815],[-76.615201,3.309578],[-76.61563,3.30904],[-76.615727,3.308835],[-76.61578,3.308673],[-76.615866,3.308555],[-76.616005,3.308458],[-76.616295,3.307984],[-76.616327,3.307877],[-76.616295,3.307758],[-76.616273,3.307564],[-76.616305,3.307403],[-76.616434,3.30723],[-76.61652,3.307047],[-76.61652,3.306812],[-76.616556,3.306741],[-76.616573,3.30675],[-76.616729,3.306649],[-76.616896,3.306593],[-76.617108,3.306593],[-76.617342,3.30657],[-76.617576,3.306469],[-76.617921,3.306369],[-76.6182,3.306357],[-76.618468,3.306369],[-76.618958,3.306279],[-76.619059,3.306212],[-76.619282,3.305976],[-76.619783,3.305595],[-76.620296,3.305259],[-76.620407,3.305158],[-76.620597,3.305058],[-76.620764,3.304889],[-76.620931,3.304777],[-76.621076,3.304733],[-76.62121,3.304766],[-76.621355,3.304923],[-76.621411,3.305024],[-76.621612,3.305158],[-76.621812,3.305237],[-76.621968,3.30527],[-76.622303,3.30527],[-76.622492,3.305315],[-76.622782,3.305338],[-76.623663,3.305696],[-76.623897,3.305831],[-76.623997,3.305943],[-76.624209,3.306368],[-76.624287,3.306581],[-76.62475,3.306727],[-76.625474,3.306693],[-76.625731,3.306704],[-76.625954,3.306738],[-76.626478,3.306895],[-76.626712,3.30694],[-76.626846,3.306985],[-76.626979,3.307097],[-76.627236,3.307354],[-76.627347,3.307365],[-76.627827,3.307321],[-76.628072,3.307242],[-76.628518,3.307152],[-76.628674,3.307096],[-76.628875,3.306984],[-76.629053,3.306917],[-76.629521,3.306816],[-76.629789,3.306738],[-76.630469,3.306727],[-76.630837,3.306637],[-76.630993,3.306615],[-76.631093,3.306536],[-76.631229,3.306353],[-76.631479,3.305892],[-76.631666,3.305599],[-76.631771,3.305368],[-76.632396,3.304447],[-76.63298,3.303671],[-76.63323,3.303462],[-76.6353,3.302042],[-76.635779,3.301738],[-76.636451,3.301371],[-76.637107,3.301074],[-76.637732,3.300843],[-76.638235,3.300623],[-76.638724,3.300441],[-76.639231,3.300282],[-76.639842,3.300131],[-76.64054,3.299795],[-76.641489,3.299701],[-76.642302,3.299575],[-76.642844,3.299565],[-76.643615,3.299607],[-76.644787,3.299848],[-76.645194,3.299837],[-76.646695,3.300015],[-76.646976,3.300067],[-76.647278,3.300172],[-76.647966,3.30034],[-76.648435,3.300539],[-76.648883,3.300916],[-76.649008,3.301104],[-76.649269,3.301345],[-76.649467,3.301492],[-76.649571,3.301597],[-76.649665,3.301722],[-76.649748,3.301796],[-76.650259,3.302068],[-76.650916,3.302351],[-76.65128,3.302581],[-76.651478,3.302665],[-76.651687,3.30278],[-76.651986,3.303026],[-76.652153,3.303204],[-76.652518,3.303403],[-76.652695,3.303476],[-76.653248,3.303476],[-76.653758,3.303508],[-76.654165,3.303623],[-76.654582,3.303686],[-76.654717,3.303759],[-76.655019,3.303885],[-76.655332,3.303906],[-76.655791,3.303906],[-76.65626,3.303969],[-76.656478,3.304063],[-76.656593,3.30423],[-76.656812,3.304681],[-76.657135,3.305131],[-76.657208,3.305299],[-76.657364,3.30555],[-76.657792,3.306084],[-76.658125,3.306618],[-76.65823,3.306975],[-76.65823,3.307069],[-76.658282,3.307289],[-76.658355,3.307771],[-76.658396,3.307917],[-76.658511,3.308064],[-76.658886,3.308399],[-76.65899,3.308546],[-76.659095,3.30864],[-76.659397,3.308776],[-76.659595,3.308828],[-76.659814,3.308933],[-76.660022,3.309111],[-76.660147,3.309268],[-76.660293,3.30953],[-76.660762,3.31018],[-76.660908,3.310588],[-76.66119,3.31108],[-76.661429,3.311426],[-76.661565,3.311531],[-76.66169,3.31174],[-76.661805,3.311981],[-76.662013,3.312327],[-76.662086,3.312536],[-76.662242,3.312767],[-76.66242,3.313227],[-76.662649,3.31394],[-76.662805,3.314306],[-76.662837,3.314422],[-76.662993,3.3146],[-76.66342,3.314757],[-76.664337,3.314945],[-76.664556,3.315018],[-76.664744,3.315029],[-76.665025,3.315081],[-76.665484,3.315238],[-76.665744,3.31528],[-76.666015,3.315395],[-76.666151,3.315427],[-76.666297,3.315437],[-76.666495,3.315406],[-76.666724,3.315301],[-76.666932,3.315144],[-76.667078,3.315092],[-76.667276,3.314987],[-76.667641,3.314913],[-76.668767,3.314809],[-76.66971,3.314767],[-76.670148,3.314767],[-76.670721,3.314829],[-76.671346,3.314641],[-76.671575,3.314588],[-76.671961,3.314368],[-76.672409,3.314169],[-76.672638,3.314044],[-76.672889,3.313949],[-76.673076,3.313949],[-76.673264,3.313981],[-76.67367,3.314085],[-76.673879,3.314106],[-76.674441,3.314096],[-76.674765,3.31418],[-76.675181,3.314326],[-76.675411,3.314515],[-76.675703,3.314682],[-76.676177,3.314881],[-76.676344,3.314871],[-76.676635,3.314902],[-76.677167,3.315007],[-76.6775,3.315311],[-76.678584,3.315489],[-76.679272,3.31553],[-76.67946,3.315583],[-76.679929,3.315583],[-76.680408,3.315604],[-76.680981,3.315551],[-76.681852,3.315373],[-76.6828,3.315132],[-76.683071,3.315017],[-76.683363,3.314828],[-76.683602,3.314619],[-76.683894,3.314451],[-76.684405,3.3142],[-76.684613,3.314158],[-76.684822,3.314189],[-76.684989,3.314262],[-76.685155,3.314367],[-76.685291,3.314388],[-76.685583,3.314357],[-76.685739,3.314283],[-76.686547,3.313822],[-76.687089,3.313477],[-76.687412,3.313435],[-76.687641,3.313382],[-76.688026,3.313456],[-76.688131,3.31334],[-76.688266,3.313225],[-76.688673,3.313078],[-76.689058,3.313036],[-76.689319,3.312932],[-76.689423,3.312869],[-76.689694,3.312816],[-76.689788,3.312816],[-76.690007,3.312879],[-76.690111,3.312869],[-76.690371,3.312764],[-76.690611,3.312701],[-76.691018,3.312701],[-76.691174,3.312732],[-76.691414,3.312743],[-76.691685,3.312848],[-76.691914,3.312858],[-76.692237,3.312774],[-76.692419,3.312753],[-76.692576,3.312659],[-76.692784,3.312565],[-76.697203,3.311381],[-76.697392,3.316851],[-76.697383,3.317944],[-76.697512,3.318357],[-76.697683,3.319045],[-76.697906,3.319484],[-76.697925,3.319645],[-76.697901,3.31975],[-76.697816,3.319897],[-76.697516,3.320516],[-76.697439,3.320748],[-76.697422,3.321135],[-76.697371,3.321273],[-76.697362,3.321402],[-76.697311,3.32154],[-76.697276,3.321695],[-76.697208,3.321832],[-76.697152,3.322073],[-76.697084,3.322245],[-76.696981,3.32283],[-76.696827,3.323217],[-76.696793,3.323346],[-76.696767,3.323648],[-76.696588,3.324104],[-76.696476,3.32456],[-76.696404,3.325041],[-76.696335,3.325317],[-76.696361,3.325523],[-76.696618,3.325824],[-76.696635,3.325988],[-76.696678,3.326125],[-76.696686,3.326452],[-76.696652,3.326685],[-76.696549,3.326917],[-76.696472,3.327304],[-76.696387,3.327407],[-76.696241,3.327519],[-76.696113,3.327648],[-76.696062,3.327829],[-76.696036,3.327958],[-76.696036,3.32807],[-76.696087,3.328173],[-76.696113,3.328268],[-76.696181,3.328354],[-76.696233,3.328517],[-76.696233,3.328646],[-76.696105,3.328956],[-76.695968,3.329403],[-76.695899,3.329567],[-76.695771,3.329756],[-76.695369,3.330814],[-76.695351,3.331064],[-76.695283,3.331494],[-76.695103,3.33195],[-76.695001,3.332303],[-76.694932,3.332483],[-76.694855,3.332621],[-76.69465,3.332888],[-76.69465,3.333275],[-76.694684,3.333653],[-76.694744,3.333963],[-76.69483,3.33423],[-76.694967,3.334385],[-76.695121,3.334643],[-76.695155,3.335331],[-76.695198,3.335684],[-76.695386,3.33614],[-76.695455,3.336226],[-76.695605,3.336363],[-76.69563,3.33657],[-76.695613,3.336957],[-76.695314,3.337568],[-76.695254,3.337731],[-76.695151,3.337877],[-76.695083,3.338049],[-76.695048,3.338523],[-76.695057,3.338841],[-76.695147,3.338918],[-76.695207,3.339056],[-76.695352,3.339168],[-76.695447,3.339271],[-76.695592,3.339512],[-76.695652,3.33971],[-76.695703,3.340045],[-76.695712,3.340217],[-76.695712,3.340338],[-76.695652,3.340699],[-76.695361,3.342058],[-76.69531,3.342196],[-76.695087,3.342532],[-76.695036,3.342661],[-76.694929,3.342798],[-76.694869,3.342962],[-76.694869,3.343065],[-76.694903,3.343194],[-76.695083,3.343418],[-76.695289,3.343607],[-76.695537,3.343891],[-76.695811,3.344115],[-76.696247,3.344347],[-76.696299,3.344424],[-76.696419,3.344519],[-76.696504,3.344639],[-76.696855,3.344966],[-76.697241,3.345259],[-76.697536,3.34574],[-76.697562,3.346239],[-76.697724,3.346566],[-76.698007,3.346953],[-76.698092,3.347186],[-76.698212,3.347401],[-76.698341,3.347538],[-76.698538,3.347624],[-76.698709,3.347745],[-76.69882,3.347839],[-76.698923,3.347968],[-76.699009,3.348046],[-76.699146,3.348227],[-76.69924,3.348433],[-76.6993,3.348502],[-76.699385,3.348717],[-76.699514,3.348897],[-76.699608,3.348975],[-76.699676,3.349078],[-76.699908,3.349517],[-76.699942,3.349749],[-76.699942,3.349904],[-76.70007,3.350308],[-76.700087,3.350429],[-76.700079,3.350687],[-76.700113,3.350876],[-76.700173,3.351031],[-76.700276,3.351401],[-76.700331,3.351692],[-76.700389,3.351899],[-76.700492,3.352118],[-76.700572,3.352336],[-76.70056,3.352589],[-76.700492,3.352877],[-76.700389,3.353038],[-76.700286,3.353153],[-76.700126,3.353428],[-76.700091,3.354061],[-76.700103,3.354394],[-76.700183,3.354509],[-76.70032,3.354659],[-76.700618,3.354865],[-76.700744,3.35498],[-76.700847,3.355153],[-76.701018,3.355325],[-76.701133,3.355475],[-76.701247,3.355843],[-76.701476,3.35621],[-76.701567,3.356325],[-76.701728,3.356647],[-76.70175,3.356774],[-76.70175,3.357061],[-76.701716,3.357372],[-76.701636,3.357567],[-76.701602,3.357739],[-76.701602,3.358061],[-76.701682,3.358268],[-76.701751,3.358579],[-76.701716,3.358728],[-76.701648,3.358843],[-76.701362,3.359039],[-76.70115,3.359251],[-76.701024,3.35955],[-76.700979,3.35978],[-76.700933,3.359884],[-76.70091,3.360137],[-76.700796,3.360332],[-76.700521,3.360608],[-76.700224,3.360792],[-76.700144,3.360861],[-76.700052,3.361033],[-76.699938,3.361332],[-76.699835,3.361401],[-76.699686,3.361401],[-76.699572,3.361436],[-76.699309,3.36147],[-76.699229,3.361516],[-76.699137,3.361597],[-76.699023,3.361781],[-76.698908,3.361896],[-76.698748,3.362241],[-76.698634,3.362321],[-76.698245,3.362689],[-76.697776,3.362896],[-76.697444,3.363091],[-76.697364,3.363195],[-76.697181,3.363609],[-76.696895,3.36385],[-76.696666,3.363988],[-76.696529,3.364115],[-76.696495,3.364241],[-76.69614,3.364839],[-76.696072,3.365207],[-76.69606,3.365575],[-76.696009,3.366155],[-76.69594,3.366385],[-76.695792,3.366512],[-76.695528,3.366558],[-76.695368,3.366765],[-76.695162,3.36696],[-76.694888,3.367259],[-76.694693,3.367328],[-76.694419,3.367673],[-76.69435,3.367857],[-76.694293,3.368121],[-76.694288,3.368507],[-76.694242,3.368668],[-76.694024,3.369208],[-76.693739,3.36976],[-76.69375,3.370277],[-76.693807,3.370564],[-76.693773,3.370725],[-76.693784,3.370944],[-76.693819,3.371139],[-76.693659,3.371553],[-76.693567,3.371898],[-76.693556,3.372071],[-76.693602,3.372277],[-76.693647,3.372726],[-76.693647,3.373151],[-76.693625,3.373703],[-76.693567,3.373967],[-76.693556,3.374186],[-76.69359,3.374404],[-76.693636,3.374542],[-76.693728,3.374669],[-76.693785,3.374818],[-76.693876,3.375106],[-76.693922,3.375313],[-76.693911,3.375887],[-76.693819,3.376313],[-76.693797,3.376876],[-76.693682,3.377244],[-76.693642,3.377744],[-76.693654,3.378181],[-76.693642,3.378422],[-76.693516,3.378721],[-76.693471,3.378871],[-76.693311,3.379158],[-76.693162,3.379285],[-76.693116,3.379457],[-76.692887,3.379859],[-76.692842,3.380216],[-76.692785,3.380377],[-76.69267,3.380607],[-76.692602,3.380825],[-76.692338,3.38117],[-76.69219,3.381297],[-76.692087,3.381446],[-76.691446,3.382044],[-76.691229,3.382504],[-76.691172,3.382768],[-76.691172,3.383125],[-76.691195,3.383309],[-76.691269,3.383544],[-76.691292,3.383717],[-76.691292,3.384142],[-76.691223,3.384395],[-76.69112,3.384648],[-76.691006,3.385004],[-76.690983,3.385188],[-76.690949,3.385315],[-76.69088,3.385453],[-76.690743,3.385556],[-76.69016,3.385867],[-76.690068,3.385982],[-76.689725,3.3862],[-76.689428,3.386579],[-76.689233,3.386982],[-76.689096,3.387166],[-76.688856,3.38743],[-76.688707,3.387672],[-76.68857,3.387936],[-76.688547,3.388074],[-76.688593,3.388201],[-76.688604,3.388304],[-76.68873,3.388614],[-76.688822,3.388764],[-76.688913,3.388844],[-76.688993,3.388959],[-76.689073,3.389028],[-76.689405,3.389109],[-76.689497,3.389166],[-76.689645,3.389212],[-76.689908,3.38935],[-76.690194,3.389637],[-76.690183,3.389902],[-76.690103,3.390132],[-76.689834,3.390619],[-76.689623,3.391235],[-76.689623,3.391339],[-76.689417,3.392075],[-76.689417,3.392236],[-76.689348,3.392558],[-76.689348,3.392971],[-76.689316,3.393102],[-76.689367,3.393143],[-76.689555,3.39324],[-76.689736,3.393498],[-76.689809,3.393576],[-76.689912,3.393647],[-76.690321,3.393825],[-76.690503,3.393953],[-76.690642,3.393994],[-76.690995,3.394277],[-76.691346,3.394462],[-76.691428,3.394547],[-76.69162,3.394861],[-76.691748,3.395293],[-76.691852,3.39548],[-76.691989,3.395647],[-76.692169,3.395773],[-76.692265,3.395817],[-76.69249,3.395869],[-76.69259,3.395914],[-76.692903,3.396107],[-76.693027,3.396301],[-76.693063,3.396486],[-76.693083,3.397163],[-76.693219,3.397514],[-76.693407,3.397873],[-76.693557,3.398213],[-76.693636,3.398369],[-76.694269,3.399223],[-76.694726,3.399651],[-76.694927,3.399893],[-76.695063,3.400138],[-76.695279,3.400425],[-76.695552,3.400836],[-76.695888,3.401409],[-76.696131,3.402025],[-76.696265,3.402465],[-76.696289,3.402731],[-76.696417,3.403118],[-76.697203,3.403465],[-76.697275,3.403537],[-76.697227,3.403771],[-76.697219,3.404061],[-76.697347,3.404626],[-76.697363,3.404875],[-76.697363,3.405303],[-76.697443,3.405569],[-76.697619,3.405932],[-76.697667,3.406238],[-76.697739,3.406496],[-76.697746,3.406932],[-76.697787,3.407189],[-76.697835,3.407358],[-76.697915,3.407552],[-76.697987,3.407834],[-76.698035,3.408221],[-76.698204,3.411204],[-76.698142,3.411491],[-76.697999,3.411916],[-76.698045,3.412491],[-76.69817,3.412882],[-76.698262,3.413101],[-76.698365,3.413307],[-76.698559,3.413549],[-76.698605,3.413698],[-76.698708,3.413859],[-76.698834,3.414204],[-76.69888,3.414549],[-76.698937,3.414802],[-76.698949,3.415124],[-76.69904,3.415331],[-76.699143,3.415687],[-76.699292,3.415929],[-76.699349,3.416147],[-76.699475,3.416354],[-76.699681,3.416526],[-76.699818,3.416664],[-76.700058,3.416848],[-76.700184,3.417067],[-76.700196,3.417159],[-76.700253,3.417354],[-76.700345,3.417584],[-76.700665,3.418101],[-76.700837,3.418412],[-76.70102,3.41863],[-76.701397,3.418917],[-76.702209,3.419136],[-76.70253,3.419297],[-76.702782,3.419779],[-76.702816,3.420676],[-76.70285,3.42078],[-76.702942,3.420952],[-76.703136,3.421159],[-76.703331,3.421768],[-76.703434,3.421941],[-76.703503,3.422113],[-76.703514,3.422263],[-76.703571,3.422492],[-76.703571,3.422607],[-76.703812,3.42301],[-76.703869,3.423217],[-76.70396,3.42332],[-76.704132,3.423619],[-76.704212,3.423711],[-76.704532,3.424435],[-76.704693,3.424895],[-76.70475,3.425263],[-76.70491,3.425573],[-76.705059,3.426125],[-76.70507,3.426516],[-76.705196,3.426792],[-76.705322,3.426941],[-76.705482,3.427079],[-76.705642,3.427355],[-76.706066,3.42778],[-76.706237,3.427918],[-76.706478,3.428056],[-76.706752,3.42824],[-76.707073,3.428482],[-76.707176,3.428608],[-76.707176,3.428792],[-76.707153,3.428964],[-76.707073,3.42924],[-76.70705,3.429424],[-76.706993,3.429677],[-76.706924,3.429896],[-76.706844,3.430356],[-76.706844,3.430896],[-76.706884,3.431821],[-76.706873,3.432764],[-76.70685,3.433316],[-76.706827,3.4335],[-76.706782,3.433695],[-76.706679,3.433833],[-76.706404,3.434075],[-76.706301,3.434213],[-76.70613,3.4345],[-76.706015,3.434615],[-76.705889,3.434696],[-76.705695,3.43473],[-76.705535,3.43473],[-76.705146,3.434857],[-76.70502,3.434972],[-76.704894,3.43519],[-76.704906,3.435339],[-76.704986,3.435799],[-76.705083,3.436092],[-76.705209,3.43661],[-76.705289,3.436736],[-76.705323,3.436955],[-76.705323,3.4373],[-76.705392,3.437518],[-76.705404,3.437817],[-76.705449,3.437943],[-76.705438,3.438254],[-76.705449,3.438507],[-76.705575,3.439415],[-76.705575,3.439783],[-76.705541,3.440622],[-76.705507,3.44076],[-76.70549,3.441329],[-76.705455,3.441432],[-76.705307,3.441743],[-76.705089,3.44203],[-76.704884,3.442145],[-76.704529,3.442249],[-76.704369,3.442341],[-76.704231,3.442479],[-76.704117,3.442651],[-76.704014,3.442824],[-76.703934,3.443031],[-76.703854,3.443353],[-76.70374,3.443548],[-76.703522,3.444077],[-76.703431,3.44441],[-76.703431,3.444525],[-76.703282,3.444962],[-76.703031,3.445296],[-76.702916,3.445399],[-76.702733,3.445468],[-76.702596,3.445468],[-76.702287,3.445411],[-76.701749,3.445261],[-76.701589,3.445238],[-76.701337,3.44525],[-76.700926,3.445181],[-76.700697,3.445181],[-76.700251,3.445215],[-76.699301,3.445239],[-76.699129,3.445262],[-76.698946,3.445365],[-76.698678,3.445382],[-76.698449,3.445359],[-76.69822,3.445359],[-76.697922,3.445474],[-76.697785,3.445566],[-76.697533,3.445796],[-76.697465,3.445888],[-76.697396,3.446153],[-76.697385,3.446256],[-76.697305,3.446406],[-76.69719,3.446521],[-76.697065,3.446693],[-76.696893,3.446877],[-76.69679,3.446958],[-76.696538,3.44721],[-76.696378,3.447429],[-76.696058,3.447693],[-76.695921,3.447785],[-76.695715,3.447854],[-76.695532,3.447969],[-76.695303,3.448199],[-76.694965,3.448653],[-76.694817,3.448803],[-76.694542,3.44901],[-76.694279,3.449182],[-76.694165,3.44932],[-76.693822,3.449504],[-76.693593,3.449677],[-76.693272,3.449861],[-76.693055,3.449964],[-76.692758,3.450056],[-76.692517,3.450286],[-76.692449,3.450447],[-76.692437,3.450551],[-76.69246,3.450804],[-76.692449,3.45116],[-76.692369,3.45162],[-76.692289,3.451942],[-76.692266,3.452195],[-76.692277,3.452402],[-76.692335,3.452654],[-76.692449,3.452953],[-76.692472,3.453229],[-76.692461,3.453413],[-76.692472,3.453942],[-76.692495,3.45416],[-76.692586,3.454482],[-76.692638,3.454775],[-76.692661,3.455109],[-76.692661,3.455373],[-76.692604,3.455948],[-76.692501,3.456247],[-76.692306,3.456592],[-76.692078,3.456822],[-76.691906,3.456925],[-76.691609,3.457178],[-76.691517,3.457328],[-76.691494,3.458018],[-76.69146,3.458225],[-76.691414,3.458385],[-76.691311,3.458569],[-76.691048,3.458834],[-76.69098,3.459006],[-76.6909,3.459156],[-76.690865,3.459374],[-76.690831,3.459466],[-76.69082,3.460076],[-76.690751,3.460478],[-76.690728,3.460846],[-76.690545,3.461386],[-76.690454,3.461478],[-76.690339,3.461501],[-76.690133,3.461432],[-76.689927,3.461306],[-76.68979,3.461283],[-76.689641,3.461294],[-76.689367,3.461375],[-76.689184,3.461467],[-76.688984,3.461748],[-76.688766,3.461978],[-76.688652,3.462059],[-76.688537,3.462105],[-76.687737,3.462289],[-76.687565,3.462381],[-76.687199,3.462634],[-76.686982,3.46268],[-76.686821,3.462749],[-76.686558,3.462795],[-76.686398,3.462875],[-76.686101,3.463128],[-76.685963,3.463266],[-76.685872,3.463416],[-76.685677,3.463956],[-76.685529,3.464266],[-76.685403,3.464381],[-76.685203,3.464491],[-76.684917,3.464744],[-76.684688,3.464859],[-76.684459,3.464939],[-76.683761,3.464962],[-76.683349,3.464905],[-76.683246,3.464778],[-76.683258,3.464215],[-76.683349,3.463985],[-76.683395,3.463698],[-76.683487,3.463445],[-76.683452,3.463111],[-76.683292,3.462996],[-76.68312,3.462835],[-76.682697,3.462697],[-76.681862,3.462732],[-76.680466,3.462709],[-76.6797,3.462813],[-76.679231,3.462974],[-76.678945,3.46302],[-76.678401,3.463209],[-76.67823,3.463279],[-76.677921,3.463508],[-76.677726,3.4636],[-76.677532,3.463715],[-76.677303,3.463796],[-76.677143,3.463796],[-76.676983,3.463761],[-76.676594,3.463578],[-76.676353,3.463428],[-76.676193,3.463256],[-76.675907,3.462865],[-76.675667,3.462359],[-76.675495,3.461842],[-76.675312,3.461623],[-76.675221,3.461543],[-76.675095,3.461497],[-76.674649,3.461485],[-76.674523,3.461497],[-76.674294,3.461577],[-76.673836,3.461807],[-76.673653,3.461842],[-76.673516,3.461945],[-76.67315,3.462348],[-76.672967,3.462451],[-76.672635,3.462566],[-76.672269,3.462658],[-76.672029,3.462762],[-76.671686,3.462854],[-76.671274,3.462923],[-76.670896,3.463061],[-76.670759,3.46313],[-76.670553,3.463245],[-76.67045,3.463325],[-76.670267,3.463555],[-76.670038,3.463785],[-76.669775,3.463889],[-76.669672,3.463946],[-76.669535,3.46405],[-76.669363,3.46421],[-76.669192,3.464302],[-76.668517,3.464808],[-76.668105,3.464981],[-76.667699,3.465205],[-76.667561,3.465378],[-76.667367,3.465722],[-76.667287,3.465895],[-76.667264,3.466021],[-76.667207,3.466171],[-76.667012,3.466366],[-76.666898,3.466447],[-76.666738,3.466481],[-76.66652,3.466654],[-76.666406,3.466895],[-76.666303,3.467022],[-76.666131,3.467321],[-76.665834,3.467688],[-76.665674,3.467918],[-76.665422,3.468022],[-76.66485,3.468033],[-76.664564,3.467999],[-76.663477,3.467838],[-76.663317,3.467746],[-76.663134,3.467712],[-76.662699,3.467516],[-76.662505,3.467378],[-76.66239,3.467206],[-76.662333,3.467068],[-76.662264,3.466838],[-76.662242,3.466643],[-76.662116,3.466551],[-76.66191,3.466505],[-76.661738,3.466493],[-76.661372,3.466493],[-76.661201,3.466516],[-76.660874,3.466505],[-76.660234,3.466378],[-76.659994,3.466298],[-76.65981,3.466206],[-76.659444,3.466183],[-76.659113,3.466125],[-76.658867,3.466129],[-76.658663,3.466167],[-76.65846,3.466241],[-76.658232,3.466367],[-76.657991,3.466574],[-76.657717,3.466689],[-76.657328,3.466758],[-76.657133,3.466712],[-76.656882,3.466677],[-76.656378,3.466666],[-76.65556,3.466781],[-76.654691,3.467],[-76.654519,3.467092],[-76.654336,3.46716],[-76.654097,3.467234],[-76.653938,3.467265],[-76.653768,3.467276],[-76.653606,3.467266],[-76.653092,3.467159],[-76.652174,3.467158],[-76.651915,3.467131],[-76.651659,3.46708],[-76.651282,3.46708],[-76.650812,3.467207],[-76.650469,3.467264],[-76.650309,3.467356],[-76.650149,3.467414],[-76.649932,3.467655],[-76.649863,3.46777],[-76.649737,3.467897],[-76.649657,3.467954],[-76.649188,3.468177],[-76.64911,3.468194],[-76.648971,3.468195],[-76.648879,3.468219],[-76.648799,3.468265],[-76.648707,3.468368],[-76.648662,3.46846],[-76.648639,3.468747],[-76.648605,3.468954],[-76.648524,3.469046],[-76.648433,3.469069],[-76.648284,3.469035],[-76.648101,3.468966],[-76.647987,3.468954],[-76.647678,3.469035],[-76.647438,3.469299],[-76.647335,3.46946],[-76.6469,3.469702],[-76.646751,3.469748],[-76.646648,3.469805],[-76.646351,3.470012],[-76.646282,3.470127],[-76.646259,3.470277],[-76.646191,3.470449],[-76.646031,3.470656],[-76.645905,3.470886],[-76.645802,3.471012],[-76.645722,3.471173],[-76.645619,3.471323],[-76.645516,3.471426],[-76.645035,3.471714],[-76.644955,3.471817],[-76.644909,3.471921],[-76.644887,3.472036],[-76.644887,3.472265],[-76.644818,3.472645],[-76.644818,3.472806],[-76.644726,3.473254],[-76.644669,3.473392],[-76.644418,3.473852],[-76.644292,3.4743],[-76.644189,3.475347],[-76.644074,3.476094],[-76.644006,3.476358],[-76.643811,3.476657],[-76.643605,3.476887],[-76.643205,3.477255],[-76.642919,3.477554],[-76.642542,3.478083],[-76.64245,3.47829],[-76.642187,3.478669],[-76.642015,3.47898],[-76.641786,3.479232],[-76.641638,3.479359],[-76.641501,3.47952],[-76.641386,3.479692],[-76.641317,3.479899],[-76.641123,3.480072],[-76.640963,3.480267],[-76.640791,3.480428],[-76.640677,3.480601],[-76.640437,3.480877],[-76.640105,3.481198],[-76.639636,3.48152],[-76.639315,3.481693],[-76.638572,3.482003],[-76.638446,3.482072],[-76.638251,3.482222],[-76.638103,3.482383],[-76.637931,3.482739],[-76.637863,3.48282],[-76.637771,3.483015],[-76.637691,3.483107],[-76.637588,3.483187],[-76.637264,3.483553],[-76.636396,3.484267],[-76.63508,3.485087],[-76.634001,3.485695],[-76.632738,3.486224],[-76.631449,3.486621],[-76.629975,3.487229],[-76.629533,3.48753],[-76.629114,3.487886],[-76.628782,3.488229],[-76.628476,3.488609],[-76.628217,3.489],[-76.627987,3.489428],[-76.627289,3.49109],[-76.627134,3.491766],[-76.626669,3.492389],[-76.626462,3.492856],[-76.626462,3.493376],[-76.626411,3.493843],[-76.626101,3.49431],[-76.625791,3.494674],[-76.62517,3.495245],[-76.62486,3.496751],[-76.624602,3.497271],[-76.624447,3.497738],[-76.624137,3.498309],[-76.623775,3.498881],[-76.623413,3.499504],[-76.623207,3.500335],[-76.623,3.501062],[-76.622948,3.501685],[-76.622845,3.502152],[-76.62269,3.502672],[-76.622703,3.504204],[-76.622651,3.504749],[-76.622755,3.505294],[-76.622755,3.505736],[-76.622858,3.507086],[-76.622858,3.507865],[-76.622806,3.508982],[-76.623013,3.509917],[-76.623194,3.510851],[-76.623362,3.511406],[-76.623348,3.511611],[-76.623266,3.511884],[-76.623144,3.512213],[-76.62313,3.512555],[-76.623171,3.512815],[-76.623226,3.51302],[-76.623158,3.51354],[-76.623021,3.513923],[-76.623035,3.514129],[-76.623076,3.514306],[-76.62309,3.514525],[-76.623062,3.514758],[-76.622994,3.514854],[-76.622926,3.515018],[-76.622885,3.515168],[-76.622804,3.515292],[-76.622436,3.515688],[-76.622368,3.515907],[-76.6223,3.516284],[-76.622204,3.516544],[-76.622096,3.516913],[-76.621905,3.51731],[-76.621769,3.517474],[-76.621619,3.517584],[-76.621469,3.517638],[-76.621279,3.517611],[-76.620952,3.517775],[-76.620761,3.517898],[-76.620366,3.518268],[-76.620162,3.519061],[-76.620094,3.519184],[-76.619372,3.519636],[-76.61929,3.519732],[-76.6191,3.520088],[-76.619045,3.520224],[-76.618936,3.520731],[-76.618807,3.520977],[-76.618548,3.52136],[-76.618344,3.521586],[-76.618201,3.521784],[-76.618085,3.52201],[-76.61799,3.522561],[-76.617902,3.522793],[-76.617765,3.523327],[-76.617731,3.523505],[-76.617731,3.523676],[-76.617868,3.524107],[-76.61797,3.524346],[-76.61814,3.524661],[-76.618215,3.524853],[-76.618235,3.525044],[-76.618215,3.525455],[-76.618201,3.52555],[-76.618126,3.525653],[-76.618038,3.525749],[-76.617745,3.526002],[-76.617554,3.526235],[-76.61748,3.526385],[-76.617445,3.526508],[-76.617439,3.526604],[-76.617636,3.527302],[-76.617895,3.527836],[-76.618004,3.528403],[-76.618018,3.528615],[-76.617997,3.528848],[-76.617854,3.529231],[-76.617725,3.529649],[-76.617527,3.530045],[-76.616676,3.531315],[-76.616533,3.531506],[-76.616404,3.531636],[-76.616275,3.531725],[-76.616063,3.531773],[-76.615859,3.531766],[-76.615444,3.531691],[-76.615027,3.531652],[-76.614599,3.53167],[-76.614127,3.531608],[-76.613865,3.531422],[-76.613561,3.531383],[-76.613389,3.531938],[-76.613027,3.532053],[-76.612646,3.532455],[-76.611732,3.533221],[-76.611218,3.533585],[-76.611009,3.534006],[-76.610685,3.534121],[-76.610285,3.534427],[-76.610285,3.534924],[-76.609637,3.536054],[-76.609295,3.536628],[-76.608419,3.537757],[-76.607923,3.538504],[-76.607447,3.539365],[-76.607066,3.540284],[-76.606743,3.540896],[-76.606628,3.541585],[-76.60665,3.542087],[-76.606478,3.542157],[-76.606145,3.542157],[-76.605773,3.542186],[-76.605524,3.542143],[-76.604965,3.542143],[-76.604536,3.542167],[-76.604382,3.54249],[-76.60391,3.543119],[-76.603628,3.54323],[-76.60286,3.543594],[-76.602276,3.544084],[-76.601919,3.544551],[-76.601705,3.544957],[-76.601455,3.545496],[-76.60136,3.546022],[-76.601109,3.546468],[-76.6007,3.546851],[-76.600271,3.547042],[-76.59981,3.547189],[-76.599453,3.547118],[-76.599167,3.546878],[-76.59887,3.546579],[-76.598084,3.546544],[-76.597798,3.546352],[-76.597489,3.546292],[-76.59706,3.546293],[-76.596679,3.546041],[-76.596271,3.546037],[-76.596177,3.546163],[-76.596183,3.546541],[-76.59529,3.547354],[-76.594814,3.547689],[-76.594504,3.547952],[-76.593945,3.547976],[-76.593599,3.54824],[-76.593361,3.54824],[-76.593183,3.548264],[-76.593064,3.548503],[-76.592552,3.548527],[-76.592361,3.548491],[-76.592373,3.548264],[-76.592349,3.547929],[-76.592087,3.547654],[-76.59204,3.547139],[-76.59173,3.546852],[-76.590695,3.546804],[-76.590433,3.546852],[-76.590016,3.546864],[-76.589647,3.546852],[-76.589278,3.546589],[-76.588861,3.546541],[-76.588504,3.546529],[-76.588147,3.54635],[-76.587742,3.546266],[-76.587411,3.546014],[-76.587004,3.546048],[-76.586481,3.546],[-76.585909,3.546096],[-76.585814,3.545809],[-76.58582,3.54539],[-76.585879,3.545001],[-76.585909,3.544583],[-76.585969,3.544164],[-76.586575,3.542711],[-76.586633,3.541329],[-76.586517,3.540942],[-76.586503,3.540683],[-76.586403,3.54008],[-76.586417,3.539757],[-76.586468,3.539288],[-76.586466,3.538957],[-76.586433,3.538498],[-76.586302,3.537434],[-76.586211,3.536226],[-76.586065,3.535704],[-76.585992,3.53535],[-76.58594,3.534992],[-76.585908,3.534631],[-76.585899,3.53409],[-76.585934,3.533585],[-76.585945,3.533095],[-76.586135,3.53163],[-76.586059,3.53123],[-76.585792,3.530697],[-76.585659,3.530373],[-76.585355,3.530011],[-76.585107,3.529764],[-76.584822,3.529364],[-76.584226,3.528709],[-76.583762,3.52828],[-76.583547,3.527995],[-76.583226,3.527674],[-76.582548,3.526674],[-76.582191,3.526103],[-76.58187,3.525496],[-76.58112,3.524926],[-76.580937,3.524827],[-76.580349,3.524348],[-76.579969,3.524084],[-76.579774,3.523868],[-76.579588,3.523544],[-76.579296,3.523275],[-76.57911,3.523226],[-76.578691,3.523069],[-76.578349,3.522912],[-76.578067,3.522746],[-76.57791,3.522598],[-76.577862,3.522491],[-76.577774,3.522206],[-76.577501,3.521961],[-76.577169,3.521726],[-76.576779,3.521491],[-76.576613,3.521422],[-76.576447,3.521324],[-76.576184,3.521079],[-76.575921,3.520883],[-76.575189,3.52056],[-76.574867,3.520236],[-76.574623,3.520079],[-76.574331,3.519815],[-76.573811,3.519576],[-76.573528,3.519504],[-76.573384,3.519497],[-76.573263,3.519531],[-76.573216,3.519556],[-76.573139,3.51963],[-76.573056,3.519663],[-76.573015,3.519671],[-76.572759,3.519643],[-76.572617,3.519657],[-76.572015,3.519863],[-76.5716,3.520066],[-76.571153,3.520053],[-76.57037,3.519993],[-76.570322,3.520062],[-76.570276,3.520195],[-76.570178,3.520373],[-76.570093,3.520592],[-76.569316,3.520688],[-76.568533,3.520946],[-76.567819,3.520898],[-76.567248,3.520898],[-76.566582,3.520708],[-76.566439,3.520375],[-76.566153,3.519851],[-76.565963,3.519376],[-76.565773,3.518852],[-76.565582,3.518138],[-76.565259,3.517492],[-76.565015,3.517384],[-76.564732,3.51708],[-76.564635,3.516933],[-76.564537,3.516595],[-76.564527,3.516198],[-76.564485,3.516062],[-76.564184,3.515716],[-76.563798,3.515013],[-76.563684,3.514776],[-76.563537,3.514532],[-76.563352,3.514309],[-76.563265,3.514164],[-76.563214,3.51403],[-76.56318,3.51379],[-76.563131,3.513662],[-76.563065,3.513591],[-76.562604,3.513394],[-76.562359,3.513321],[-76.561473,3.513507],[-76.560837,3.513339],[-76.560562,3.513251],[-76.559931,3.51322],[-76.5594,3.513331],[-76.558466,3.513063],[-76.558002,3.513042],[-76.557397,3.512826],[-76.556733,3.512551],[-76.556597,3.512444],[-76.556392,3.512346],[-76.5561,3.512159],[-76.555706,3.511991],[-76.555596,3.511912],[-76.555398,3.511817],[-76.555036,3.511723],[-76.554666,3.511488],[-76.55448,3.511439],[-76.554314,3.51141],[-76.553905,3.511449],[-76.553495,3.511556],[-76.553232,3.511596],[-76.552939,3.511596],[-76.552695,3.511566],[-76.552539,3.511527],[-76.552412,3.511439],[-76.552354,3.511341],[-76.552393,3.511008],[-76.552412,3.510478],[-76.552364,3.510037],[-76.552364,3.509684],[-76.552149,3.509429],[-76.551866,3.509439],[-76.551769,3.50939],[-76.551096,3.50938],[-76.550452,3.509586],[-76.549935,3.509616],[-76.549593,3.509429],[-76.549428,3.509224],[-76.549369,3.508988],[-76.549193,3.508724],[-76.549125,3.508557],[-76.549096,3.50843],[-76.548875,3.508279],[-76.548689,3.508004],[-76.548631,3.507812],[-76.548521,3.507613],[-76.548323,3.507338],[-76.548251,3.507266],[-76.548155,3.507],[-76.548097,3.506912],[-76.548033,3.506737],[-76.548009,3.506579],[-76.54794,3.506357],[-76.548073,3.506346],[-76.548142,3.506224],[-76.548195,3.506188],[-76.548366,3.50615],[-76.548383,3.506111],[-76.548409,3.505992],[-76.548444,3.505927],[-76.548394,3.505738],[-76.548397,3.505662],[-76.548423,3.505616],[-76.548414,3.505564],[-76.548466,3.505023],[-76.548468,3.504734],[-76.548455,3.504646],[-76.548098,3.504016],[-76.547988,3.503734],[-76.547952,3.503682],[-76.547821,3.503614],[-76.547798,3.503572],[-76.547771,3.503476],[-76.547736,3.50304],[-76.547657,3.502834],[-76.547674,3.502725],[-76.547836,3.502518],[-76.54792,3.502365],[-76.547948,3.502255],[-76.547921,3.501881],[-76.547927,3.50159],[-76.547912,3.50121],[-76.547986,3.500793],[-76.54801,3.500509],[-76.548061,3.500222],[-76.548056,3.500123],[-76.548019,3.49996],[-76.547944,3.499808],[-76.547875,3.499707],[-76.547683,3.4995],[-76.547565,3.499297],[-76.54741,3.498922],[-76.547086,3.497963],[-76.546709,3.497165],[-76.546541,3.496771],[-76.546293,3.496585],[-76.546013,3.496416],[-76.545602,3.496087],[-76.545238,3.495951],[-76.545109,3.495829],[-76.544964,3.495726],[-76.544728,3.49572],[-76.544379,3.495664],[-76.54429,3.495766],[-76.544012,3.495956],[-76.543945,3.496055],[-76.543829,3.49618],[-76.543678,3.496306],[-76.543448,3.49657],[-76.543331,3.496793],[-76.54327,3.497125],[-76.543011,3.497753],[-76.542945,3.498007],[-76.542951,3.498203],[-76.543018,3.498521],[-76.543002,3.498708],[-76.542941,3.498873],[-76.542686,3.499337],[-76.542412,3.499429],[-76.542133,3.499492],[-76.541814,3.499647],[-76.541673,3.499694],[-76.541391,3.499702],[-76.541028,3.49976],[-76.540716,3.499693],[-76.540611,3.499733],[-76.540482,3.499844],[-76.540432,3.499851],[-76.540338,3.499803],[-76.54029,3.499799],[-76.540267,3.499802],[-76.540192,3.49989],[-76.540145,3.499888],[-76.54008,3.499849],[-76.540032,3.499848],[-76.539957,3.499917],[-76.539881,3.50005],[-76.53981,3.500067],[-76.539655,3.500034],[-76.539489,3.500084],[-76.539413,3.500065],[-76.539186,3.499984],[-76.538541,3.499665],[-76.538482,3.499722],[-76.538188,3.499902],[-76.538103,3.499931],[-76.537949,3.500046],[-76.537878,3.500068],[-76.537727,3.500052],[-76.537638,3.50008],[-76.537568,3.50012],[-76.537484,3.500234],[-76.537439,3.500267],[-76.537328,3.5003],[-76.537199,3.500293],[-76.537018,3.50023],[-76.536767,3.500199],[-76.536351,3.500165],[-76.535826,3.500166],[-76.535617,3.500151],[-76.535423,3.500079],[-76.535148,3.499911],[-76.534966,3.499862],[-76.534874,3.499863],[-76.53467,3.499901],[-76.534201,3.500109],[-76.534033,3.500161],[-76.533984,3.50016],[-76.533909,3.500123],[-76.533867,3.500025],[-76.533788,3.499963],[-76.533596,3.499984],[-76.533436,3.499952],[-76.533333,3.499877],[-76.53332,3.499828],[-76.533342,3.499697],[-76.533346,3.499449],[-76.533296,3.499359],[-76.533046,3.499298],[-76.532754,3.499317],[-76.532501,3.49927],[-76.53245,3.499245],[-76.532406,3.499185],[-76.532254,3.498906],[-76.532188,3.498824],[-76.532115,3.498772],[-76.532008,3.498741],[-76.531815,3.498769],[-76.531725,3.498806],[-76.531676,3.498803],[-76.531564,3.498739],[-76.531202,3.498476],[-76.530851,3.498167],[-76.530769,3.498059],[-76.530718,3.497853],[-76.53072,3.497768],[-76.530759,3.49759],[-76.530747,3.497539],[-76.530632,3.497439],[-76.53051,3.497412],[-76.530412,3.497342],[-76.530335,3.497171],[-76.530273,3.497106],[-76.530229,3.497083],[-76.530171,3.49706],[-76.530081,3.497091],[-76.529942,3.497183],[-76.529844,3.497339],[-76.529777,3.497538],[-76.52967,3.497715],[-76.529634,3.497753],[-76.52955,3.497781],[-76.529376,3.497766],[-76.529141,3.497681],[-76.528936,3.497681],[-76.528652,3.497534],[-76.528495,3.497496],[-76.528398,3.497492],[-76.528267,3.497489],[-76.528166,3.49751],[-76.528077,3.49757],[-76.528022,3.497644],[-76.527911,3.497691],[-76.527752,3.497677],[-76.527644,3.49758],[-76.527498,3.497621],[-76.527359,3.497574],[-76.527145,3.497601],[-76.527056,3.497689],[-76.527009,3.497686],[-76.526932,3.497616],[-76.526815,3.497432],[-76.526634,3.497259],[-76.526319,3.497119],[-76.526238,3.497128],[-76.526071,3.497229],[-76.525974,3.49725],[-76.525936,3.497241],[-76.525829,3.497123],[-76.525804,3.497115],[-76.525608,3.497148],[-76.52529,3.497267],[-76.525051,3.497254],[-76.524923,3.497174],[-76.524823,3.497085],[-76.524643,3.496852],[-76.524579,3.496735],[-76.524522,3.496675],[-76.524427,3.496622],[-76.524384,3.496616],[-76.524355,3.496624],[-76.524207,3.496784],[-76.524118,3.496729],[-76.524105,3.496653],[-76.524133,3.496528],[-76.524234,3.496402],[-76.52427,3.49631],[-76.524224,3.496144],[-76.524151,3.496064],[-76.523822,3.495891],[-76.523533,3.495705],[-76.523413,3.495565],[-76.523087,3.49506],[-76.522973,3.494959],[-76.522903,3.49492],[-76.522851,3.494744],[-76.52236,3.494464],[-76.521817,3.494279],[-76.518605,3.49328],[-76.517887,3.493071],[-76.51704,3.492793],[-76.51647,3.492627],[-76.514187,3.491883],[-76.513517,3.491688],[-76.513013,3.491514],[-76.512733,3.49144],[-76.512048,3.491161],[-76.510903,3.49057],[-76.509421,3.490119],[-76.50901,3.491567],[-76.507811,3.491191],[-76.50748,3.492138],[-76.507001,3.492004],[-76.506649,3.492969],[-76.507932,3.493411],[-76.508523,3.493567],[-76.505294,3.494927],[-76.500019,3.497213],[-76.499556,3.497398],[-76.498153,3.498024],[-76.497509,3.498333],[-76.497252,3.498517],[-76.497231,3.498865],[-76.497317,3.499502],[-76.497317,3.499688],[-76.497271,3.499927],[-76.497106,3.500389],[-76.497056,3.500468],[-76.496966,3.500551],[-76.496836,3.500615],[-76.496563,3.500619],[-76.496373,3.500678],[-76.496334,3.500734],[-76.496305,3.500852],[-76.496312,3.500961],[-76.496368,3.50111],[-76.496444,3.501221],[-76.496741,3.50149],[-76.496829,3.501632],[-76.496845,3.501838],[-76.49681,3.501939],[-76.496759,3.501978],[-76.496707,3.501994],[-76.49652,3.502001],[-76.496298,3.501947],[-76.496116,3.501871],[-76.495995,3.50184],[-76.4958,3.501825],[-76.49567,3.501833],[-76.495505,3.50189],[-76.495323,3.501977],[-76.495167,3.502073],[-76.49505,3.502177],[-76.494916,3.502321],[-76.494868,3.50246],[-76.494899,3.502568],[-76.494994,3.502616],[-76.49531,3.502512],[-76.495466,3.502499],[-76.495626,3.502551],[-76.495648,3.502748],[-76.495609,3.502839],[-76.495271,3.503105],[-76.49502,3.503483],[-76.494794,3.503914],[-76.494721,3.504006],[-76.494612,3.50408],[-76.494521,3.504067],[-76.494462,3.503994],[-76.49453,3.50367],[-76.494526,3.503531],[-76.49447,3.503388],[-76.4944,3.503344],[-76.49427,3.503354],[-76.494149,3.503486],[-76.494072,3.503519],[-76.494058,3.503592],[-76.493997,3.503701],[-76.493958,3.503832],[-76.493963,3.504018],[-76.494006,3.504258],[-76.494166,3.504649],[-76.494352,3.50489],[-76.494434,3.50515],[-76.494426,3.505295],[-76.494387,3.505434],[-76.494257,3.505534],[-76.494079,3.505551],[-76.493821,3.505524],[-76.49358,3.505469],[-76.493173,3.505522],[-76.492584,3.505646],[-76.491756,3.505871],[-76.491382,3.505582],[-76.491492,3.504859],[-76.491519,3.503545],[-76.491465,3.501203],[-76.491474,3.501067],[-76.491439,3.500769],[-76.49134,3.500488],[-76.491187,3.500235],[-76.491025,3.500054],[-76.490521,3.499756],[-76.489909,3.49934],[-76.48761,3.498246],[-76.486141,3.497643],[-76.485651,3.497357],[-76.485203,3.497009],[-76.484804,3.496605],[-76.484496,3.496205],[-76.48407,3.49553],[-76.483804,3.495037],[-76.483582,3.494523],[-76.483414,3.494027],[-76.48328,3.493492],[-76.483177,3.492804],[-76.483104,3.491667],[-76.483013,3.490686],[-76.482905,3.489775],[-76.482837,3.489439],[-76.482737,3.489148],[-76.482629,3.48892],[-76.482428,3.488606],[-76.481763,3.487428],[-76.481646,3.486917],[-76.481497,3.485668],[-76.481497,3.48498],[-76.481443,3.484302],[-76.481335,3.483733],[-76.481146,3.483081],[-76.480849,3.482675],[-76.480472,3.48234],[-76.479581,3.481852],[-76.479446,3.481806],[-76.479293,3.481725],[-76.479113,3.481589],[-76.479005,3.481481],[-76.478897,3.481336],[-76.478789,3.481137],[-76.478735,3.480983],[-76.478699,3.480821],[-76.47869,3.480658],[-76.478483,3.479736],[-76.478483,3.478524],[-76.478466,3.478292],[-76.47839,3.477884],[-76.478265,3.477526],[-76.478089,3.47719],[-76.477851,3.476866],[-76.477235,3.476159],[-76.476117,3.475061],[-76.476009,3.474925],[-76.475901,3.474771],[-76.475766,3.474527],[-76.475613,3.474093],[-76.475559,3.473768],[-76.475551,3.47346],[-76.475569,3.473325],[-76.475569,3.472565],[-76.475632,3.471091],[-76.475632,3.470784],[-76.475605,3.470449],[-76.475551,3.470124],[-76.475416,3.469635],[-76.475245,3.469219],[-76.474903,3.468632],[-76.474498,3.46789],[-76.474087,3.467047],[-76.473992,3.466825],[-76.473932,3.466622],[-76.47392,3.466407],[-76.473956,3.466197],[-76.473998,3.46606],[-76.474382,3.465449],[-76.474454,3.46525],[-76.474571,3.465006],[-76.474751,3.46468],[-76.474931,3.4644],[-76.475201,3.464038],[-76.47539,3.463821],[-76.476227,3.463008],[-76.476578,3.462628],[-76.477019,3.462031],[-76.477127,3.461796],[-76.477208,3.461543],[-76.477262,3.461245],[-76.477271,3.460919],[-76.477235,3.460621],[-76.477181,3.460404],[-76.4771,3.460178],[-76.476785,3.4595],[-76.476551,3.458776],[-76.476407,3.45827],[-76.476407,3.45714],[-76.476389,3.45647],[-76.476308,3.455756],[-76.476254,3.45562],[-76.476192,3.455168],[-76.475715,3.454056],[-76.475607,3.453523],[-76.475607,3.453219],[-76.475751,3.452052],[-76.475823,3.451302],[-76.475877,3.451139],[-76.475913,3.450922],[-76.475922,3.450693],[-76.475877,3.450349],[-76.475796,3.450105],[-76.475589,3.449817],[-76.475328,3.449506],[-76.474997,3.449284],[-76.474729,3.448952],[-76.474556,3.448318],[-76.474485,3.447606],[-76.47458,3.446925],[-76.474785,3.44626],[-76.475053,3.445167],[-76.475195,3.444217],[-76.475084,3.44352],[-76.474769,3.442823],[-76.474289,3.442079],[-76.473737,3.441461],[-76.473359,3.44124],[-76.472934,3.441034],[-76.472508,3.441034],[-76.472193,3.441065],[-76.471846,3.441255],[-76.471578,3.441493],[-76.4712,3.441936],[-76.471011,3.442427],[-76.470916,3.443124],[-76.47079,3.443789],[-76.470711,3.44447],[-76.470572,3.445168],[-76.470408,3.445634],[-76.470307,3.445852],[-76.470152,3.446055],[-76.469866,3.446411],[-76.469461,3.446875],[-76.469244,3.447084],[-76.468878,3.447365],[-76.468296,3.447757],[-76.46804,3.447892],[-76.467736,3.448003],[-76.467329,3.448074],[-76.467113,3.44808],[-76.466898,3.448064],[-76.466703,3.448029],[-76.466477,3.447966],[-76.466081,3.447792],[-76.465865,3.447663],[-76.465634,3.447475],[-76.465458,3.447282],[-76.465306,3.447058],[-76.464854,3.446105],[-76.464768,3.445801],[-76.464733,3.445523],[-76.464749,3.445126],[-76.464817,3.444817],[-76.465361,3.443597],[-76.465561,3.443051],[-76.465736,3.442635],[-76.465818,3.442366],[-76.465954,3.44176],[-76.465979,3.441548],[-76.465954,3.441189],[-76.465868,3.440977],[-76.465656,3.440257],[-76.465538,3.440013],[-76.46535,3.439726],[-76.465173,3.439522],[-76.464952,3.439322],[-76.464353,3.438953],[-76.463843,3.438666],[-76.462951,3.438245],[-76.462637,3.43802],[-76.462383,3.437804],[-76.462097,3.437517],[-76.461784,3.437131],[-76.461566,3.4368],[-76.461351,3.436392],[-76.461115,3.435442],[-76.4611,3.434777],[-76.461131,3.433336],[-76.461131,3.432433],[-76.461037,3.431673],[-76.460911,3.430881],[-76.46073,3.430216],[-76.460399,3.429504],[-76.460163,3.428949],[-76.460005,3.427999],[-76.460053,3.427191],[-76.460226,3.426162],[-76.460541,3.425006],[-76.461314,3.422979],[-76.461437,3.422087],[-76.461516,3.421186],[-76.461551,3.420116],[-76.46073,3.417043],[-76.460684,3.416685],[-76.460703,3.416369],[-76.460792,3.416019],[-76.460954,3.415687],[-76.461245,3.415336],[-76.461568,3.41505],[-76.461789,3.414815],[-76.461974,3.414672],[-76.462169,3.41456],[-76.463399,3.41406],[-76.463774,3.413869],[-76.464012,3.413696],[-76.464226,3.41351],[-76.464339,3.413313],[-76.464594,3.412971],[-76.46528,3.41149],[-76.465739,3.410087],[-76.465746,3.40978],[-76.46572,3.409492],[-76.465651,3.409155],[-76.465564,3.408889],[-76.465424,3.408586],[-76.465196,3.408228],[-76.464653,3.407643],[-76.464395,3.407188],[-76.464365,3.406965],[-76.46436,3.406776],[-76.464375,3.406568],[-76.464417,3.406346],[-76.46453,3.406022],[-76.464718,3.405694],[-76.465093,3.405304],[-76.465501,3.404927],[-76.466303,3.404299],[-76.466558,3.404076],[-76.466703,3.403913],[-76.466875,3.403604],[-76.466915,3.403476],[-76.466941,3.403323],[-76.466977,3.402875],[-76.466984,3.402631],[-76.466937,3.40189],[-76.466807,3.401458],[-76.466471,3.400704],[-76.465963,3.399764],[-76.464512,3.397546],[-76.464047,3.396662],[-76.463942,3.396321],[-76.463891,3.396073],[-76.463861,3.395822],[-76.463852,3.395506],[-76.463872,3.395217],[-76.463917,3.394941],[-76.463989,3.394661],[-76.464144,3.393855],[-76.464481,3.392295],[-76.464586,3.391327],[-76.464589,3.390938],[-76.464525,3.390509],[-76.464387,3.39008],[-76.4643,3.389891],[-76.463996,3.389436],[-76.463531,3.388423],[-76.463298,3.387734],[-76.463246,3.387315],[-76.463251,3.38708],[-76.463284,3.386829],[-76.463402,3.386421],[-76.463609,3.386005],[-76.463764,3.385603],[-76.464301,3.384524],[-76.46474,3.383939],[-76.465296,3.383329],[-76.465772,3.382675],[-76.465938,3.382334],[-76.466,3.382126],[-76.466033,3.38194],[-76.466045,3.381642],[-76.466027,3.381453],[-76.465969,3.381197],[-76.465905,3.380665],[-76.465857,3.379536],[-76.46588,3.379416],[-76.46594,3.379297],[-76.466089,3.379123],[-76.466279,3.379022],[-76.466392,3.378992],[-76.466708,3.378962],[-76.466898,3.378974],[-76.467053,3.37901],[-76.467213,3.379064],[-76.467701,3.379512],[-76.468029,3.379698],[-76.468189,3.379769],[-76.468433,3.379805],[-76.468659,3.379807],[-76.468922,3.379785],[-76.469654,3.37966],[-76.469947,3.379572],[-76.470263,3.37944],[-76.470496,3.379255],[-76.470711,3.379049],[-76.470976,3.37873],[-76.471175,3.378419],[-76.471344,3.378069],[-76.471473,3.377686],[-76.471385,3.377344],[-76.471014,3.37665],[-76.469762,3.375058],[-76.469523,3.374712],[-76.46916,3.374133],[-76.46908,3.373715],[-76.469027,3.372817],[-76.468948,3.37234],[-76.468846,3.371996],[-76.468863,3.371998],[-76.46848,3.371292],[-76.467999,3.370723],[-76.467463,3.370326],[-76.46653,3.36953],[-76.466361,3.369321],[-76.466181,3.369051],[-76.466077,3.36886],[-76.465956,3.368588],[-76.465868,3.368332],[-76.465695,3.367708],[-76.465617,3.36714],[-76.465611,3.366835],[-76.465647,3.366204],[-76.465757,3.365624],[-76.466034,3.364897],[-76.466043,3.364739],[-76.466022,3.364592],[-76.465977,3.364383],[-76.465715,3.363454],[-76.46504,3.361671],[-76.464871,3.360974],[-76.464384,3.359221],[-76.463875,3.358425],[-76.463253,3.35763],[-76.46283,3.357374],[-76.462293,3.357232],[-76.461812,3.357232],[-76.461304,3.35726],[-76.460931,3.357163],[-76.460674,3.356962],[-76.460495,3.356711],[-76.460424,3.35656],[-76.46041,3.356238],[-76.460424,3.356022],[-76.460481,3.355721],[-76.461964,3.354116],[-76.462355,3.353656],[-76.462661,3.353086],[-76.463367,3.351439],[-76.463509,3.350558],[-76.463539,3.349912],[-76.463396,3.348911],[-76.463198,3.348116],[-76.462944,3.347548],[-76.462777,3.346949],[-76.462735,3.346701],[-76.462749,3.346514],[-76.463198,3.345872],[-76.463735,3.345048],[-76.464063,3.344375],[-76.46413,3.344036],[-76.464173,3.343705],[-76.464182,3.343294],[-76.464182,3.342935],[-76.464131,3.342322],[-76.463905,3.341811],[-76.46351,3.341129],[-76.462973,3.340561],[-76.462323,3.339709],[-76.461589,3.338914],[-76.460939,3.338005],[-76.460402,3.337011],[-76.460232,3.336016],[-76.460204,3.335306],[-76.460233,3.334426],[-76.460572,3.333375],[-76.460855,3.332438],[-76.460855,3.330564],[-76.460798,3.329371],[-76.460683,3.32894],[-76.460545,3.32851],[-76.460388,3.328096],[-76.46018,3.327625],[-76.459931,3.327143],[-76.459668,3.326701],[-76.459019,3.325849],[-76.458876,3.325571],[-76.458843,3.325346],[-76.458838,3.325179],[-76.458966,3.324782],[-76.459071,3.324585],[-76.459276,3.324313],[-76.459847,3.323853],[-76.460333,3.323521],[-76.461336,3.322725],[-76.461564,3.322387],[-76.461769,3.321965],[-76.461847,3.321381],[-76.46189,3.320669],[-76.461833,3.320228],[-76.461619,3.319572],[-76.46128,3.318948],[-76.461111,3.318209],[-76.461073,3.317976],[-76.461069,3.317771],[-76.461097,3.317598],[-76.461164,3.317421],[-76.46124,3.317254],[-76.461335,3.317125],[-76.46165,3.316785],[-76.461835,3.316665],[-76.462202,3.316488],[-76.462411,3.316449],[-76.462992,3.316481],[-76.463292,3.316549],[-76.463556,3.316636],[-76.463838,3.316819],[-76.464271,3.317246],[-76.464361,3.317358],[-76.464982,3.318295],[-76.465717,3.319459],[-76.466423,3.320652],[-76.467045,3.321107],[-76.467228,3.321092],[-76.467447,3.321039],[-76.467669,3.320942],[-76.467821,3.320845],[-76.467977,3.320709],[-76.468345,3.319744],[-76.468345,3.318949],[-76.468317,3.318125],[-76.467781,3.315674],[-76.467688,3.315057],[-76.46766,3.314562],[-76.467674,3.314138],[-76.467717,3.313593],[-76.46786,3.312775],[-76.468131,3.311712],[-76.468253,3.311303],[-76.468572,3.310798],[-76.468968,3.310599],[-76.469448,3.310542],[-76.470013,3.310627],[-76.470833,3.311025],[-76.471483,3.311565],[-76.471818,3.312256],[-76.472205,3.313165],[-76.472419,3.31411],[-76.472496,3.314523],[-76.472502,3.315061],[-76.472437,3.316269],[-76.472383,3.316879],[-76.472383,3.317364],[-76.472454,3.317914],[-76.47272,3.318671],[-76.472833,3.318947],[-76.47305,3.319332],[-76.47326,3.319614],[-76.473614,3.319973],[-76.473894,3.320186],[-76.474124,3.320327],[-76.474924,3.320707],[-76.475299,3.320832],[-76.475615,3.320905],[-76.475917,3.32095],[-76.476294,3.320972],[-76.476591,3.320964],[-76.476851,3.320938],[-76.477078,3.32095],[-76.477266,3.320932],[-76.477459,3.320885],[-76.47769,3.320786],[-76.477914,3.320635],[-76.478092,3.320457],[-76.478324,3.320127],[-76.478415,3.31994],[-76.47851,3.319711],[-76.478572,3.319457],[-76.478601,3.319194],[-76.478596,3.31894],[-76.478562,3.318606],[-76.478383,3.317824],[-76.478144,3.317335],[-76.477631,3.316445],[-76.477049,3.315749],[-76.47643,3.315065],[-76.476001,3.314457],[-76.47584,3.31418],[-76.475664,3.313091],[-76.475592,3.311696],[-76.475502,3.31116],[-76.475348,3.310558],[-76.475189,3.310069],[-76.475127,3.30982],[-76.47495,3.309304],[-76.474239,3.307953],[-76.474082,3.307599],[-76.473877,3.306986],[-76.473681,3.306129],[-76.473547,3.305264],[-76.473548,3.305075],[-76.473569,3.304895],[-76.47365,3.304599],[-76.473756,3.304386],[-76.474004,3.304057],[-76.474314,3.303746],[-76.475305,3.303141],[-76.476296,3.302474],[-76.476937,3.301795],[-76.477056,3.301635],[-76.477413,3.301074],[-76.477501,3.300743],[-76.477465,3.300019],[-76.477344,3.299582],[-76.477087,3.299007],[-76.47678,3.298139],[-76.476658,3.297637],[-76.476615,3.296704],[-76.476615,3.294995],[-76.476708,3.294602],[-76.477001,3.294026],[-76.47733,3.293653],[-76.477672,3.293352],[-76.478087,3.293072],[-76.478972,3.29267],[-76.479708,3.292677],[-76.481055,3.292933],[-76.481607,3.293177],[-76.482188,3.293546],[-76.4833,3.294502],[-76.483581,3.29492],[-76.484131,3.296234],[-76.484235,3.296849],[-76.484504,3.29804],[-76.484662,3.298999],[-76.484674,3.300756],[-76.484705,3.301849],[-76.484827,3.302709],[-76.485108,3.303471],[-76.485524,3.304012],[-76.485721,3.304296],[-76.486543,3.304888],[-76.486854,3.30505],[-76.487074,3.305128],[-76.487329,3.305184],[-76.487911,3.305268],[-76.488324,3.305291],[-76.488756,3.305281],[-76.489014,3.305245],[-76.489265,3.305175],[-76.489464,3.305092],[-76.489763,3.304922],[-76.490061,3.30438],[-76.490144,3.303997],[-76.490108,3.303435],[-76.489966,3.302609],[-76.489793,3.301163],[-76.489704,3.300254],[-76.489715,3.299555],[-76.489757,3.29898],[-76.489882,3.29846],[-76.490084,3.29785],[-76.490388,3.297336],[-76.49114,3.29634],[-76.491618,3.295922],[-76.492149,3.295504],[-76.492866,3.294864],[-76.493512,3.294206],[-76.493985,3.29369],[-76.494244,3.293087],[-76.494348,3.292648],[-76.494375,3.292215],[-76.494359,3.291981],[-76.494319,3.291731],[-76.494275,3.291555],[-76.493982,3.29074],[-76.493423,3.289928],[-76.492769,3.28939],[-76.492957,3.289328],[-76.493295,3.289136],[-76.493475,3.288996],[-76.493627,3.288754],[-76.493664,3.288414],[-76.493618,3.288108],[-76.493709,3.28744],[-76.493692,3.287321],[-76.49359,3.287059],[-76.493525,3.286796],[-76.493437,3.286625],[-76.493408,3.28659],[-76.49296,3.286334],[-76.49281,3.286222],[-76.492686,3.286081],[-76.492632,3.285985],[-76.492554,3.285744],[-76.492539,3.285316],[-76.492545,3.285118],[-76.4926,3.284938],[-76.492744,3.284592],[-76.492936,3.284318],[-76.492983,3.284069],[-76.493019,3.283972],[-76.493106,3.283849],[-76.493179,3.283549],[-76.493375,3.283079],[-76.493422,3.283003],[-76.493642,3.2825],[-76.493788,3.282262],[-76.4939,3.282001],[-76.494022,3.281855],[-76.494189,3.281718],[-76.494333,3.281651],[-76.494509,3.281612],[-76.494616,3.281544],[-76.494756,3.281298],[-76.494791,3.281018],[-76.494745,3.280813],[-76.494705,3.28078],[-76.494229,3.280129],[-76.494232,3.280073],[-76.494185,3.279891],[-76.493925,3.279319],[-76.493925,3.279129],[-76.493977,3.279015],[-76.494374,3.278628],[-76.494532,3.278512],[-76.494588,3.278491],[-76.4947,3.278485],[-76.494863,3.278523],[-76.494915,3.278551],[-76.49512,3.278751],[-76.495481,3.278987],[-76.495888,3.27914],[-76.496136,3.27928],[-76.496256,3.279316],[-76.496518,3.279332],[-76.496763,3.279212],[-76.496852,3.279049],[-76.496848,3.278969],[-76.496793,3.278893],[-76.496689,3.278808],[-76.496603,3.278761],[-76.496552,3.278702],[-76.49648,3.278578],[-76.496386,3.278479],[-76.496351,3.278337],[-76.496378,3.278249],[-76.496444,3.278171],[-76.496734,3.277942],[-76.496833,3.277788],[-76.496853,3.277676],[-76.496859,3.277397],[-76.496822,3.277269],[-76.496797,3.277092],[-76.496809,3.276929],[-76.496829,3.276865],[-76.496891,3.276811],[-76.497041,3.276755],[-76.49715,3.276739],[-76.49727,3.276752],[-76.497408,3.276834],[-76.497476,3.276852],[-76.497557,3.276851],[-76.498002,3.276693],[-76.498117,3.276617],[-76.49823,3.276488],[-76.49834,3.276302],[-76.498424,3.2761],[-76.498442,3.27597],[-76.498429,3.275894],[-76.498388,3.275732],[-76.498342,3.275634],[-76.498241,3.275448],[-76.498093,3.275249],[-76.497983,3.275131],[-76.497927,3.275048],[-76.497784,3.274923],[-76.497725,3.274833],[-76.497716,3.274784],[-76.497742,3.274657],[-76.497847,3.274523],[-76.497972,3.274405],[-76.498085,3.27431],[-76.498378,3.274133],[-76.499009,3.273552],[-76.499253,3.273378],[-76.499498,3.273337],[-76.499547,3.273348],[-76.499665,3.273559],[-76.499713,3.273766],[-76.499725,3.273887],[-76.499781,3.274064],[-76.499852,3.274606],[-76.49992,3.274711],[-76.500066,3.274863],[-76.500099,3.274928],[-76.500121,3.275108],[-76.500158,3.275224],[-76.500301,3.27545],[-76.500342,3.27563],[-76.500342,3.275719],[-76.500306,3.275821],[-76.500227,3.27595],[-76.500019,3.276206],[-76.499935,3.276351],[-76.499869,3.27654],[-76.499871,3.276679],[-76.499921,3.276732],[-76.500257,3.276903],[-76.500298,3.276956],[-76.500429,3.277066],[-76.500502,3.277277],[-76.50059,3.277442],[-76.500794,3.277496],[-76.500879,3.277574],[-76.501064,3.277794],[-76.501096,3.277949],[-76.501171,3.278116],[-76.501262,3.278395],[-76.501335,3.278532],[-76.501371,3.278698],[-76.50139,3.278964],[-76.501386,3.279177],[-76.501413,3.279237],[-76.501454,3.27926],[-76.501526,3.27925],[-76.501577,3.279205],[-76.501709,3.279044],[-76.501869,3.278735],[-76.502094,3.278511],[-76.502216,3.278432],[-76.502325,3.278401],[-76.502419,3.278395],[-76.502519,3.278408],[-76.502629,3.278446],[-76.502734,3.278503],[-76.50298,3.278715],[-76.503052,3.27875],[-76.503431,3.279099],[-76.503658,3.279211],[-76.50386,3.27921],[-76.503942,3.279251],[-76.503981,3.279292],[-76.504072,3.279476],[-76.504277,3.280067],[-76.504359,3.280229],[-76.504473,3.280389],[-76.504789,3.280567],[-76.505042,3.280659],[-76.505185,3.280694],[-76.505452,3.280697],[-76.505583,3.280662],[-76.505831,3.280523],[-76.506027,3.280367],[-76.506332,3.279941],[-76.506355,3.279859],[-76.506357,3.27961],[-76.506388,3.279538],[-76.50659,3.279277],[-76.506791,3.279083],[-76.507101,3.27885],[-76.508461,3.277957],[-76.509134,3.277751],[-76.509271,3.277746],[-76.509767,3.277785],[-76.510072,3.277858],[-76.510299,3.277948],[-76.510826,3.27828],[-76.511474,3.278574],[-76.511703,3.278644],[-76.512037,3.278638],[-76.512197,3.278602],[-76.512265,3.278555],[-76.512325,3.278461],[-76.512374,3.278328],[-76.512458,3.278003],[-76.512512,3.277933],[-76.512516,3.277878],[-76.512619,3.277755],[-76.512705,3.277702],[-76.512999,3.277606],[-76.513237,3.277486],[-76.513563,3.277504],[-76.51376,3.277593],[-76.514022,3.2778],[-76.514121,3.277905],[-76.51439,3.278108],[-76.51459,3.278163],[-76.514824,3.278294],[-76.515524,3.278483],[-76.51579,3.278597],[-76.51607,3.278761],[-76.51625,3.278845],[-76.516459,3.278912],[-76.516648,3.278939],[-76.516944,3.279027],[-76.517304,3.279168],[-76.517389,3.279239],[-76.517485,3.27938],[-76.517532,3.279482],[-76.517794,3.280165],[-76.517873,3.28054],[-76.518069,3.280933],[-76.518162,3.28098],[-76.518332,3.280979],[-76.518736,3.280788],[-76.51885,3.280749],[-76.519012,3.28075],[-76.519177,3.280809],[-76.519359,3.280901],[-76.519813,3.281179],[-76.520147,3.281529],[-76.520511,3.28206],[-76.521116,3.282792],[-76.521286,3.282945],[-76.521502,3.28304],[-76.521579,3.283125],[-76.521594,3.283159],[-76.521582,3.283243],[-76.521459,3.283525],[-76.521408,3.283744],[-76.521406,3.284114],[-76.521438,3.284244],[-76.521489,3.284363],[-76.521627,3.284544],[-76.521823,3.284754],[-76.52209,3.28494],[-76.522547,3.285189],[-76.522752,3.285278],[-76.524166,3.28579],[-76.524524,3.285857],[-76.524746,3.285879],[-76.524962,3.28595],[-76.525195,3.286068]]]}}]}