{"type":"FeatureCollection","features":[{"type":"Feature","properties":{"id":"comuna-06","name":"COMUNA 06"},"geometry":{"type":"Polygon","coordinates":[[[-76.49138,3.50558],[-76.49134,3.50049],[-76.48991,3.49934],[-76.48565,3.49736],[-76.48407,3.49553],[-76.48328,3.49349],[-76.48284,3.48944],[-76.48176,3.48743],[-76.48115,3.48308],[-76.4789,3.48134],[-76.47826,3.47753],[-76.47598,3.47489],[-76.47558,3.47391],[-76.4756,3.47045],[-76.47487,3.46856],[-76.4844,3.46552],[-76.48942,3.48161],[-76.49034,3.48372],[-76.4921,3.48498],[-76.50319,3.4884],[-76.50224,3.49042],[-76.50049,3.49257],[-76.49741,3.49782],[-76.49722,3.50008],[-76.49631,3.50085],[-76.49681,3.50194],[-76.49567,3.50183],[-76.49492,3.50232],[-76.4949,3.50257],[-76.49547,3.5025],[-76.49565,3.50275],[-76.49461,3.50408],[-76.49447,3.50339],[-76.49407,3.50352],[-76.49401,3.50426],[-76.49443,3.50515],[-76.49426,3.50553],[-76.49176,3.50587],[-76.49138,3.50558]]]}},{"type":"Feature","properties":{"id":"comuna-04","name":"COMUNA 04"},"geometry":{"type":"Polygon","coordinates":[[[-76.51791,3.45366],[-76.51859,3.45389],[-76.51905,3.45463],[-76.52132,3.4623],[-76.52,3.46315],[-76.51623,3.47066],[-76.51109,3.47769],[-76.50905,3.48099],[-76.50795,3.48193],[-76.50413,3.48368],[-76.50388,3.48746],[-76.50319,3.4884],[-76.49527,3.48598],[-76.49684,3.48325],[-76.4987,3.48096],[-76.50276,3.47788],[-76.50444,3.47603],[-76.50378,3.47486],[-76.50287,3.47162],[-76.50617,3.47059],[-76.50163,3.46005],[-76.51589,3.45555],[-76.51722,3.45394],[-76.51791,3.45366]]]}},{"type":"Feature","properties":{"id":"comuna-05","name":"COMUNA 05"},"geometry":{"type":"Polygon","coordinates":[[[-76.50162,3.46006],[-76.50617,3.47059],[-76.50287,3.47162],[-76.50378,3.47486],[-76.50444,3.47603],[-76.50276,3.47788],[-76.4987,3.48096],[-76.49684,3.48325],[-76.49527,3.48598],[-76.4915,3.48473],[-76.49006,3.48327],[-76.4844,3.46552],[-76.50162,3.46006]]]}},{"type":"Feature","properties":{"id":"comuna-07","name":"COMUNA 07"},"geometry":{"type":"Polygon","coordinates":[[[-76.4745,3.46515],[-76.47702,3.46203],[-76.47726,3.46124],[-76.47641,3.45827],[-76.47619,3.45517],[-76.47561,3.45352],[-76.47592,3.4508],[-76.47568,3.44994],[-76.47769,3.44837],[-76.48011,3.44721],[-76.48159,3.44473],[-76.48409,3.44448],[-76.48686,3.44328],[-76.48937,3.44437],[-76.49086,3.44392],[-76.4864,3.45229],[-76.49137,3.45282],[-76.49566,3.45257],[-76.5009,3.45279],[-76.50953,3.45398],[-76.51032,3.45732],[-76.47487,3.46856],[-76.47393,3.46662],[-76.4745,3.46515]]]}},{"type":"Feature","properties":{"id":"comuna-08","name":"COMUNA 08"},"geometry":{"type":"Polygon","coordinates":[[[-76.50953,3.45398],[-76.5009,3.45279],[-76.49566,3.45257],[-76.49137,3.45282],[-76.4864,3.45229],[-76.49086,3.44392],[-76.49325,3.44308],[-76.49302,3.44231],[-76.49566,3.44139],[-76.49532,3.44045],[-76.4975,3.43968],[-76.49775,3.4404],[-76.49747,3.44286],[-76.50269,3.44335],[-76.50159,3.44016],[-76.50841,3.43783],[-76.50793,3.43597],[-76.5097,3.43551],[-76.50955,3.43489],[-76.51126,3.43442],[-76.51301,3.43662],[-76.51938,3.43567],[-76.51794,3.44908],[-76.51819,3.45167],[-76.51905,3.45463],[-76.51852,3.45385],[-76.51764,3.4537],[-76.5161,3.45546],[-76.51032,3.45732],[-76.50953,3.45398]]]}},{"type":"Feature","properties":{"id":"comuna-09","name":"COMUNA 09"},"geometry":{"type":"Polygon","coordinates":[[[-76.51794,3.44908],[-76.51938,3.43567],[-76.52309,3.43491],[-76.52744,3.43199],[-76.52979,3.43208],[-76.52986,3.43234],[-76.53427,3.43374],[-76.5386,3.43778],[-76.53605,3.44055],[-76.53327,3.44199],[-76.5308,3.44262],[-76.526,3.44255],[-76.52825,3.45012],[-76.52208,3.45216],[-76.51856,3.45299],[-76.51794,3.44908]]]}},{"type":"Feature","properties":{"id":"comuna-13","name":"COMUNA 13"},"geometry":{"type":"Polygon","coordinates":[[[-76.48693,3.44332],[-76.48411,3.44425],[-76.48389,3.42789],[-76.48749,3.41957],[-76.48889,3.41945],[-76.49155,3.41822],[-76.49337,3.41672],[-76.49509,3.41661],[-76.50049,3.41146],[-76.50456,3.41577],[-76.50305,3.41721],[-76.50655,3.42089],[-76.49911,3.42801],[-76.49082,3.44393],[-76.48937,3.44437],[-76.48693,3.44332]]]}},{"type":"Feature","properties":{"id":"comuna-12","name":"COMUNA 12"},"geometry":{"type":"Polygon","coordinates":[[[-76.49082,3.44393],[-76.49911,3.42801],[-76.50273,3.42457],[-76.50593,3.42799],[-76.5074,3.4273],[-76.50879,3.42937],[-76.51041,3.43075],[-76.50974,3.43203],[-76.51173,3.43293],[-76.51086,3.434],[-76.51126,3.43442],[-76.50955,3.43489],[-76.5097,3.43551],[-76.50793,3.43597],[-76.50841,3.43783],[-76.50159,3.44016],[-76.50269,3.44335],[-76.49747,3.44286],[-76.49775,3.4404],[-76.4975,3.43968],[-76.49532,3.44045],[-76.49566,3.44139],[-76.49302,3.44231],[-76.49325,3.44308],[-76.49082,3.44393]]]}},{"type":"Feature","properties":{"id":"comuna-11","name":"COMUNA 11"},"geometry":{"type":"Polygon","coordinates":[[[-76.50745,3.42748],[-76.50593,3.42799],[-76.50273,3.42457],[-76.52158,3.40637],[-76.52211,3.40359],[-76.52261,3.40514],[-76.51938,3.43567],[-76.51301,3.43662],[-76.51086,3.434],[-76.51173,3.43293],[-76.50974,3.43203],[-76.51041,3.43075],[-76.50879,3.42937],[-76.50745,3.42748]]]}},{"type":"Feature","properties":{"id":"comuna-10","name":"COMUNA 10"},"geometry":{"type":"Polygon","coordinates":[[[-76.51938,3.43567],[-76.52256,3.40552],[-76.52499,3.40579],[-76.53871,3.41029],[-76.53403,3.42467],[-76.53328,3.42443],[-76.53304,3.42514],[-76.53157,3.42466],[-76.53067,3.42742],[-76.5302,3.42733],[-76.52981,3.4285],[-76.53029,3.42892],[-76.52895,3.42986],[-76.52945,3.43058],[-76.52332,3.4348],[-76.51938,3.43567]]]}},{"type":"Feature","properties":{"id":"comuna-20","name":"COMUNA 20"},"geometry":{"type":"Polygon","coordinates":[[[-76.55114,3.42897],[-76.5512,3.42816],[-76.55043,3.42795],[-76.55027,3.4271],[-76.55092,3.427],[-76.55203,3.42594],[-76.55281,3.42397],[-76.55333,3.42003],[-76.55445,3.41746],[-76.55559,3.41314],[-76.55564,3.41188],[-76.55625,3.41231],[-76.55662,3.41195],[-76.55724,3.41304],[-76.55807,3.41314],[-76.55893,3.41386],[-76.56034,3.41366],[-76.56137,3.41314],[-76.56192,3.41231],[-76.56316,3.41146],[-76.56486,3.41071],[-76.56564,3.41082],[-76.56614,3.41229],[-76.56355,3.41281],[-76.56429,3.41425],[-76.56404,3.41511],[-76.56576,3.41546],[-76.56665,3.41617],[-76.56731,3.41729],[-76.56831,3.41717],[-76.56611,3.41914],[-76.56659,3.42149],[-76.56699,3.4221],[-76.56604,3.42224],[-76.56572,3.42305],[-76.56494,3.423],[-76.56438,3.42355],[-76.5645,3.42408],[-76.5629,3.42424],[-76.56215,3.42512],[-76.56132,3.42503],[-76.56105,3.42391],[-76.55985,3.42371],[-76.55938,3.42414],[-76.55972,3.42455],[-76.55961,3.4252],[-76.55837,3.4254],[-76.55682,3.42866],[-76.55506,3.42859],[-76.55496,3.42721],[-76.55415,3.42712],[-76.55384,3.4278],[-76.55436,3.42834],[-76.55412,3.42896],[-76.55253,3.42847],[-76.55262,3.42922],[-76.55226,3.42951],[-76.55114,3.42897]]]}},{"type":"Feature","properties":{"id":"comuna-16","name":"COMUNA 16"},"geometry":{"type":"Polygon","coordinates":[[[-76.51093,3.39059],[-76.51001,3.38833],[-76.51141,3.38814],[-76.51471,3.38969],[-76.51553,3.38908],[-76.51814,3.38986],[-76.51855,3.39026],[-76.51991,3.39009],[-76.52066,3.39069],[-76.52208,3.39028],[-76.52311,3.38949],[-76.52329,3.38859],[-76.52389,3.38843],[-76.52335,3.38759],[-76.52457,3.38725],[-76.52351,3.39889],[-76.523,3.4019],[-76.5222,3.40325],[-76.52158,3.40637],[-76.50655,3.42089],[-76.50305,3.41721],[-76.50456,3.41577],[-76.50049,3.41146],[-76.51618,3.3971],[-76.51093,3.39059]]]}},{"type":"Feature","properties":{"id":"comuna-17","name":"COMUNA 17"},"geometry":{"type":"Polygon","coordinates":[[[-76.52256,3.40552],[-76.52211,3.40359],[-76.52295,3.40207],[-76.52351,3.39889],[-76.52457,3.38725],[-76.52335,3.38759],[-76.52389,3.38843],[-76.52329,3.38859],[-76.52311,3.38949],[-76.52208,3.39028],[-76.52066,3.39069],[-76.51955,3.38999],[-76.51855,3.39026],[-76.51814,3.38986],[-76.51553,3.38908],[-76.51471,3.38969],[-76.51304,3.38889],[-76.51398,3.38613],[-76.51421,3.38143],[-76.51425,3.36287],[-76.51472,3.36312],[-76.51544,3.36265],[-76.51567,3.36296],[-76.51546,3.3632],[-76.51638,3.36427],[-76.51689,3.36418],[-76.5167,3.36358],[-76.51735,3.36345],[-76.51737,3.36396],[-76.51792,3.3644],[-76.51837,3.36341],[-76.51931,3.36296],[-76.52124,3.36395],[-76.52303,3.36342],[-76.52429,3.36211],[-76.52463,3.36387],[-76.52597,3.36545],[-76.54119,3.37324],[-76.54219,3.37466],[-76.54435,3.38395],[-76.54639,3.39713],[-76.54641,3.40036],[-76.54176,3.40096],[-76.53871,3.41029],[-76.52499,3.40579],[-76.52256,3.40552]]]}},{"type":"Feature","properties":{"id":"comuna-18","name":"COMUNA 18"},"geometry":{"type":"Polygon","coordinates":[[[-76.54905,3.37054],[-76.54899,3.36966],[-76.54967,3.36796],[-76.55053,3.36731],[-76.55106,3.36634],[-76.55402,3.36734],[-76.55493,3.36809],[-76.55573,3.3675],[-76.55817,3.36746],[-76.55927,3.36822],[-76.55927,3.36983],[-76.5598,3.37004],[-76.56037,3.36951],[-76.56175,3.37089],[-76.56193,3.37294],[-76.56132,3.3738],[-76.56144,3.37584],[-76.56058,3.37558],[-76.56011,3.3774],[-76.56129,3.37833],[-76.56139,3.37965],[-76.56058,3.38011],[-76.55956,3.37964],[-76.56004,3.38112],[-76.56158,3.3824],[-76.56112,3.38296],[-76.56151,3.38338],[-76.56135,3.38431],[-76.56171,3.38458],[-76.5612,3.38555],[-76.56189,3.38672],[-76.56242,3.38662],[-76.56273,3.38731],[-76.56176,3.38707],[-76.56163,3.38738],[-76.5619,3.38773],[-76.56231,3.38753],[-76.56291,3.38792],[-76.56353,3.38878],[-76.56214,3.38961],[-76.56271,3.39037],[-76.56149,3.39082],[-76.56129,3.39187],[-76.56156,3.39265],[-76.56156,3.39492],[-76.56077,3.3954],[-76.56022,3.39518],[-76.5598,3.39556],[-76.55891,3.39545],[-76.5579,3.39469],[-76.54965,3.39583],[-76.54957,3.39521],[-76.54863,3.39535],[-76.5487,3.39596],[-76.54625,3.39628],[-76.54435,3.38395],[-76.54238,3.37549],[-76.54292,3.37471],[-76.54391,3.37492],[-76.54446,3.37432],[-76.54435,3.37382],[-76.54512,3.37367],[-76.54499,3.37213],[-76.54415,3.37141],[-76.54651,3.37055],[-76.54748,3.37122],[-76.54804,3.37115],[-76.54749,3.37039],[-76.54761,3.37015],[-76.54873,3.37087],[-76.54905,3.37054]]]}},{"type":"Feature","properties":{"id":"comuna-02","name":"COMUNA 02"},"geometry":{"type":"Polygon","coordinates":[[[-76.49855,3.49567],[-76.50224,3.49042],[-76.50305,3.48856],[-76.50375,3.48791],[-76.50413,3.48368],[-76.50795,3.48193],[-76.50905,3.48099],[-76.51109,3.47769],[-76.51623,3.47066],[-76.51901,3.46496],[-76.52053,3.46257],[-76.52209,3.46221],[-76.52413,3.46237],[-76.52501,3.461],[-76.52691,3.45968],[-76.52782,3.45816],[-76.52907,3.45774],[-76.53006,3.45785],[-76.53152,3.45684],[-76.53245,3.45406],[-76.53569,3.45269],[-76.53814,3.45091],[-76.53992,3.45072],[-76.54151,3.45157],[-76.54324,3.45106],[-76.54448,3.45118],[-76.54446,3.44955],[-76.54389,3.44863],[-76.54253,3.4489],[-76.54424,3.44813],[-76.5465,3.44809],[-76.54657,3.44769],[-76.54588,3.44716],[-76.54611,3.4466],[-76.5467,3.44697],[-76.5487,3.44709],[-76.54952,3.4476],[-76.55022,3.44733],[-76.55051,3.4476],[-76.55145,3.44691],[-76.55237,3.44719],[-76.5533,3.44641],[-76.55441,3.44668],[-76.55444,3.44783],[-76.55548,3.44809],[-76.55625,3.44766],[-76.55665,3.44786],[-76.55627,3.44821],[-76.5573,3.44889],[-76.5573,3.4501],[-76.55645,3.45073],[-76.55489,3.45114],[-76.55321,3.45323],[-76.55134,3.45388],[-76.54989,3.45367],[-76.54818,3.45471],[-76.54796,3.45506],[-76.54854,3.45589],[-76.54697,3.45691],[-76.54668,3.45677],[-76.54671,3.45717],[-76.54628,3.45734],[-76.5442,3.45633],[-76.54378,3.45518],[-76.54292,3.4552],[-76.54255,3.45583],[-76.54142,3.45587],[-76.54096,3.45392],[-76.54148,3.45348],[-76.54145,3.45255],[-76.54069,3.45185],[-76.54004,3.45209],[-76.53997,3.45406],[-76.53966,3.45421],[-76.53976,3.4546],[-76.53824,3.45862],[-76.53744,3.45886],[-76.53708,3.46009],[-76.53726,3.46055],[-76.53637,3.46185],[-76.5363,3.46265],[-76.53571,3.46375],[-76.53483,3.46435],[-76.53512,3.46492],[-76.53468,3.46523],[-76.53441,3.465],[-76.53448,3.46634],[-76.53317,3.46834],[-76.53287,3.47044],[-76.5322,3.47045],[-76.53179,3.4714],[-76.53131,3.47172],[-76.53151,3.47191],[-76.53109,3.47253],[-76.53138,3.47302],[-76.53217,3.47317],[-76.53225,3.47471],[-76.53047,3.47573],[-76.52926,3.47858],[-76.52924,3.48043],[-76.53101,3.48115],[-76.53124,3.48156],[-76.53095,3.48199],[-76.53034,3.48199],[-76.5304,3.48331],[-76.53186,3.48414],[-76.53274,3.48517],[-76.53275,3.4856],[-76.53335,3.48583],[-76.53331,3.48622],[-76.53444,3.48717],[-76.53439,3.4877],[-76.53506,3.48781],[-76.53547,3.48828],[-76.5353,3.48848],[-76.53403,3.48817],[-76.53501,3.48944],[-76.53577,3.48985],[-76.5349,3.49058],[-76.53487,3.49156],[-76.5355,3.49196],[-76.53424,3.49287],[-76.53331,3.49088],[-76.53274,3.49083],[-76.53246,3.48962],[-76.53122,3.49033],[-76.53129,3.48912],[-76.53158,3.48904],[-76.53132,3.4882],[-76.53019,3.48857],[-76.52984,3.48837],[-76.52935,3.48966],[-76.52838,3.48989],[-76.52799,3.49068],[-76.52833,3.49273],[-76.52836,3.49749],[-76.52704,3.49769],[-76.52632,3.49712],[-76.52506,3.49726],[-76.52443,3.49662],[-76.52417,3.49677],[-76.52422,3.49614],[-76.52236,3.49446],[-76.50942,3.49012],[-76.50901,3.49157],[-76.50781,3.49119],[-76.50748,3.49214],[-76.507,3.492],[-76.50665,3.49297],[-76.50852,3.49357],[-76.49725,3.49852],[-76.49855,3.49567]]]}},{"type":"Feature","properties":{"id":"comuna-01","name":"COMUNA 01"},"geometry":{"type":"Polygon","coordinates":[[[-76.55893,3.46297],[-76.55764,3.46342],[-76.55589,3.46131],[-76.55447,3.46153],[-76.55465,3.45972],[-76.55265,3.4604],[-76.55259,3.46105],[-76.55106,3.46033],[-76.55035,3.46054],[-76.54995,3.45963],[-76.54905,3.4588],[-76.54879,3.45888],[-76.54856,3.45828],[-76.54697,3.45691],[-76.54854,3.45589],[-76.54796,3.45506],[-76.54818,3.45471],[-76.54989,3.45367],[-76.55134,3.45388],[-76.55321,3.45323],[-76.55489,3.45114],[-76.55645,3.45073],[-76.5573,3.4501],[-76.5573,3.4489],[-76.55764,3.44899],[-76.55836,3.44752],[-76.55934,3.4474],[-76.56003,3.4484],[-76.56182,3.44882],[-76.56304,3.44876],[-76.56414,3.44832],[-76.5646,3.44875],[-76.56478,3.44959],[-76.5653,3.44989],[-76.5689,3.44875],[-76.57075,3.44958],[-76.573,3.44908],[-76.57599,3.45009],[-76.57733,3.44958],[-76.57901,3.44966],[-76.58041,3.45225],[-76.58148,3.45281],[-76.58267,3.45419],[-76.58392,3.45338],[-76.58486,3.45388],[-76.58443,3.45519],[-76.58465,3.45614],[-76.5797,3.46001],[-76.57896,3.46023],[-76.5781,3.45947],[-76.57776,3.45852],[-76.57673,3.45862],[-76.57743,3.45936],[-76.57591,3.46015],[-76.57552,3.45991],[-76.57565,3.45929],[-76.57497,3.45806],[-76.57287,3.45835],[-76.57305,3.45736],[-76.5725,3.45613],[-76.5715,3.45669],[-76.57146,3.45594],[-76.57117,3.45582],[-76.57039,3.45668],[-76.56961,3.45643],[-76.56908,3.45582],[-76.56821,3.45638],[-76.56804,3.45708],[-76.56748,3.45623],[-76.56669,3.4564],[-76.56664,3.45582],[-76.56315,3.45549],[-76.56304,3.45584],[-76.56354,3.45673],[-76.56312,3.45771],[-76.56065,3.46039],[-76.56082,3.46355],[-76.55936,3.46353],[-76.55893,3.46297]]]}},{"type":"Feature","properties":{"id":"comuna-03","name":"COMUNA 03"},"geometry":{"type":"Polygon","coordinates":[[[-76.52413,3.46237],[-76.52132,3.4623],[-76.51856,3.45299],[-76.52208,3.45216],[-76.52825,3.45012],[-76.526,3.44255],[-76.5308,3.44262],[-76.53297,3.44209],[-76.53605,3.44055],[-76.53778,3.43875],[-76.54083,3.44084],[-76.54085,3.44177],[-76.54333,3.44138],[-76.54377,3.44084],[-76.54544,3.44151],[-76.54682,3.44256],[-76.54837,3.44305],[-76.54892,3.44484],[-76.54837,3.44538],[-76.54625,3.44578],[-76.54588,3.44716],[-76.54657,3.44769],[-76.54657,3.44803],[-76.54481,3.44831],[-76.54424,3.44813],[-76.54253,3.4489],[-76.54389,3.44863],[-76.54446,3.44955],[-76.54448,3.45118],[-76.54324,3.45106],[-76.54151,3.45157],[-76.53968,3.45069],[-76.5377,3.45112],[-76.53569,3.45269],[-76.53245,3.45406],[-76.53152,3.45684],[-76.53006,3.45785],[-76.52907,3.45774],[-76.52782,3.45816],[-76.52691,3.45968],[-76.52501,3.461],[-76.52413,3.46237]]]}},{"type":"Feature","properties":{"id":"comuna-19","name":"COMUNA 19"},"geometry":{"type":"Polygon","coordinates":[[[-76.55538,3.44798],[-76.55437,3.44775],[-76.55441,3.44668],[-76.5533,3.44641],[-76.55237,3.44719],[-76.55145,3.44691],[-76.55051,3.4476],[-76.55022,3.44733],[-76.54952,3.4476],[-76.5487,3.44709],[-76.54649,3.44689],[-76.54611,3.4466],[-76.54628,3.44574],[-76.54837,3.44538],[-76.5489,3.44491],[-76.54893,3.44436],[-76.54825,3.44294],[-76.54682,3.44256],[-76.54544,3.44151],[-76.54377,3.44084],[-76.54333,3.44138],[-76.54085,3.44177],[-76.54083,3.44084],[-76.53778,3.43875],[-76.5386,3.43778],[-76.53427,3.43374],[-76.52986,3.43234],[-76.52979,3.43208],[-76.52744,3.43199],[-76.52945,3.43058],[-76.52895,3.42986],[-76.53029,3.42892],[-76.52981,3.4285],[-76.5302,3.42733],[-76.53067,3.42742],[-76.53157,3.42466],[-76.53304,3.42514],[-76.53328,3.42443],[-76.53403,3.42467],[-76.54176,3.40096],[-76.54641,3.40036],[-76.54625,3.39628],[-76.5487,3.39596],[-76.54863,3.39535],[-76.54957,3.39521],[-76.54965,3.39583],[-76.5579,3.39469],[-76.55649,3.40635],[-76.55816,3.40697],[-76.55789,3.40921],[-76.55905,3.41145],[-76.55946,3.41155],[-76.55978,3.41068],[-76.56027,3.4103],[-76.56081,3.4104],[-76.56134,3.40987],[-76.56151,3.41028],[-76.56253,3.40985],[-76.56363,3.40721],[-76.56441,3.40751],[-76.56503,3.40735],[-76.56582,3.40848],[-76.5651,3.40971],[-76.56547,3.40988],[-76.56564,3.41082],[-76.56486,3.41071],[-76.56267,3.41171],[-76.56137,3.41314],[-76.56034,3.41366],[-76.55863,3.41383],[-76.55809,3.41315],[-76.55724,3.41304],[-76.55665,3.41196],[-76.55625,3.41231],[-76.55564,3.41188],[-76.55559,3.41314],[-76.55445,3.41746],[-76.55333,3.42003],[-76.55281,3.42397],[-76.55203,3.42594],[-76.55092,3.427],[-76.55027,3.4271],[-76.55043,3.42795],[-76.5512,3.42816],[-76.55114,3.42897],[-76.55226,3.42951],[-76.55262,3.42922],[-76.55253,3.42847],[-76.55412,3.42896],[-76.55436,3.42834],[-76.55384,3.4278],[-76.55415,3.42712],[-76.55496,3.42721],[-76.55512,3.42903],[-76.55476,3.42952],[-76.55536,3.43093],[-76.55418,3.4337],[-76.55417,3.43459],[-76.5538,3.43477],[-76.5541,3.43537],[-76.55516,3.43552],[-76.55415,3.43608],[-76.55415,3.43635],[-76.55272,3.43669],[-76.55208,3.43766],[-76.5514,3.43719],[-76.55056,3.43732],[-76.55007,3.43901],[-76.55026,3.43979],[-76.55058,3.43909],[-76.5512,3.44044],[-76.55191,3.43999],[-76.5525,3.44095],[-76.55308,3.44077],[-76.55345,3.44147],[-76.55498,3.44245],[-76.55498,3.44307],[-76.55685,3.44568],[-76.55726,3.44537],[-76.55736,3.44622],[-76.55853,3.44625],[-76.55843,3.44722],[-76.55538,3.44798]]]}},{"type":"Feature","properties":{"id":"comuna-15","name":"COMUNA 15"},"geometry":{"type":"Polygon","coordinates":[[[-76.48636,3.4182],[-76.48633,3.41907],[-76.4854,3.41906],[-76.4836,3.4176],[-76.48359,3.41618],[-76.48286,3.41535],[-76.48344,3.41362],[-76.48677,3.41215],[-76.49073,3.40959],[-76.49381,3.40612],[-76.49589,3.40482],[-76.49886,3.40236],[-76.50322,3.39425],[-76.50478,3.39204],[-76.50828,3.3888],[-76.51001,3.38833],[-76.51091,3.39056],[-76.51618,3.3971],[-76.49522,3.41652],[-76.49332,3.41674],[-76.49188,3.41805],[-76.48889,3.41945],[-76.48806,3.41943],[-76.48636,3.4182]]]}},{"type":"Feature","properties":{"id":"comuna-22","name":"COMUNA 22"},"geometry":{"type":"Polygon","coordinates":[[[-76.54219,3.37466],[-76.54093,3.37307],[-76.52653,3.36577],[-76.52543,3.36504],[-76.52463,3.36387],[-76.52336,3.35303],[-76.52414,3.34705],[-76.52455,3.33852],[-76.52394,3.33532],[-76.52565,3.33472],[-76.52876,3.3351],[-76.53263,3.33324],[-76.55037,3.33182],[-76.55119,3.33365],[-76.54994,3.33586],[-76.55008,3.33833],[-76.55092,3.34049],[-76.55154,3.34117],[-76.55164,3.34222],[-76.54875,3.35031],[-76.54659,3.35343],[-76.54695,3.35497],[-76.54425,3.35669],[-76.54454,3.35727],[-76.54436,3.35922],[-76.54205,3.36139],[-76.54907,3.37027],[-76.54902,3.37071],[-76.54867,3.37085],[-76.54767,3.37014],[-76.54749,3.37039],[-76.54804,3.37115],[-76.54748,3.37122],[-76.54651,3.37055],[-76.54415,3.37141],[-76.54499,3.37213],[-76.54512,3.37367],[-76.54435,3.37382],[-76.54446,3.37432],[-76.54391,3.37492],[-76.54292,3.37471],[-76.54238,3.37549],[-76.54219,3.37466]]]}},{"type":"Feature","properties":{"id":"comuna-21","name":"COMUNA 21"},"geometry":{"type":"Polygon","coordinates":[[[-76.47581,3.44472],[-76.47537,3.44255],[-76.47378,3.44039],[-76.47266,3.44006],[-76.46903,3.44056],[-76.46805,3.43993],[-76.46526,3.43694],[-76.46347,3.43565],[-76.4628,3.43443],[-76.46167,3.4295],[-76.46126,3.42661],[-76.46281,3.4216],[-76.46317,3.41757],[-76.4636,3.41692],[-76.46551,3.4155],[-76.46737,3.41117],[-76.46616,3.40708],[-76.46669,3.40566],[-76.46822,3.40402],[-76.46835,3.40273],[-76.46743,3.3999],[-76.4684,3.40079],[-76.47265,3.4011],[-76.47341,3.40078],[-76.47419,3.39955],[-76.47483,3.39952],[-76.47697,3.40317],[-76.47613,3.4056],[-76.47693,3.40643],[-76.47907,3.40773],[-76.4795,3.40837],[-76.47945,3.4096],[-76.48003,3.41187],[-76.47392,3.41184],[-76.47332,3.41157],[-76.46678,3.42307],[-76.46641,3.42423],[-76.46677,3.42543],[-76.47637,3.43787],[-76.48226,3.44148],[-76.48404,3.44018],[-76.48409,3.44448],[-76.48149,3.44478],[-76.48011,3.44721],[-76.47769,3.44837],[-76.4768,3.4493],[-76.4753,3.44785],[-76.47581,3.44472]]]}},{"type":"Feature","properties":{"id":"comuna-14","name":"COMUNA 14"},"geometry":{"type":"Polygon","coordinates":[[[-76.46657,3.42353],[-76.47332,3.41157],[-76.47392,3.41184],[-76.48003,3.41187],[-76.47974,3.4134],[-76.48116,3.41484],[-76.48289,3.41516],[-76.48293,3.4156],[-76.48359,3.41618],[-76.4837,3.41773],[-76.48518,3.41898],[-76.48633,3.41907],[-76.48636,3.4182],[-76.48793,3.41933],[-76.4874,3.41975],[-76.4838,3.42814],[-76.48404,3.44018],[-76.48226,3.44148],[-76.47637,3.43787],[-76.46677,3.42543],[-76.46642,3.42449],[-76.46657,3.42353]]]}},{"type":"Feature","properties":{"id":"los-andes","name":"Los Andes"},"geometry":{"type":"Polygon","coordinates":[[[-76.5942,3.46212],[-76.59232,3.46202],[-76.59174,3.46171],[-76.59142,3.46057],[-76.59218,3.45774],[-76.59112,3.45773],[-76.58985,3.459],[-76.58689,3.45764],[-76.58655,3.45722],[-76.58656,3.45582],[-76.58465,3.45614],[-76.58442,3.45542],[-76.58486,3.4542],[-76.58468,3.45356],[-76.58392,3.45338],[-76.58267,3.45419],[-76.58148,3.45281],[-76.58041,3.45225],[-76.57901,3.44966],[-76.57733,3.44958],[-76.57599,3.45009],[-76.573,3.44908],[-76.57075,3.44958],[-76.5689,3.44875],[-76.5653,3.44989],[-76.56478,3.44959],[-76.5646,3.44875],[-76.56414,3.44832],[-76.56304,3.44876],[-76.5614,3.44875],[-76.56003,3.4484],[-76.55924,3.44737],[-76.5581,3.44768],[-76.55764,3.44899],[-76.5574,3.44896],[-76.55627,3.44821],[-76.55716,3.44753],[-76.55856,3.44714],[-76.55853,3.44625],[-76.55736,3.44622],[-76.55726,3.44537],[-76.55685,3.44568],[-76.55498,3.44307],[-76.55503,3.44252],[-76.55345,3.44147],[-76.55308,3.44077],[-76.5525,3.44095],[-76.55191,3.43999],[-76.5512,3.44044],[-76.55058,3.43909],[-76.55021,3.43974],[-76.55007,3.43901],[-76.55051,3.43736],[-76.5514,3.43719],[-76.55208,3.43766],[-76.55272,3.43669],[-76.55415,3.43635],[-76.55415,3.43608],[-76.55516,3.43552],[-76.5541,3.43537],[-76.5538,3.43477],[-76.55417,3.43459],[-76.55418,3.4337],[-76.55536,3.43093],[-76.55476,3.42952],[-76.55506,3.42859],[-76.55682,3.42866],[-76.55708,3.42843],[-76.55837,3.4254],[-76.55961,3.4252],[-76.55972,3.42455],[-76.55938,3.42414],[-76.55992,3.42367],[-76.56105,3.42391],[-76.56132,3.42503],[-76.56215,3.42512],[-76.5629,3.42424],[-76.5645,3.42408],[-76.56438,3.42355],[-76.56494,3.423],[-76.56572,3.42305],[-76.56604,3.42224],[-76.56699,3.4221],[-76.56659,3.42149],[-76.56611,3.41914],[-76.56831,3.41717],[-76.56731,3.41729],[-76.56665,3.41617],[-76.56576,3.41546],[-76.56404,3.41511],[-76.56429,3.41425],[-76.56355,3.41281],[-76.56614,3.41229],[-76.56563,3.41081],[-76.56706,3.41039],[-76.56695,3.40944],[-76.5682,3.40944],[-76.56815,3.41065],[-76.56889,3.41102],[-76.56961,3.41018],[-76.56933,3.40936],[-76.5689,3.40941],[-76.56912,3.40877],[-76.57035,3.40925],[-76.57055,3.41031],[-76.57231,3.40973],[-76.57365,3.40874],[-76.57427,3.409],[-76.57463,3.4084],[-76.57435,3.40799],[-76.57506,3.40764],[-76.5772,3.40803],[-76.57901,3.40733],[-76.58058,3.40768],[-76.58105,3.40724],[-76.58142,3.40757],[-76.5821,3.40732],[-76.58356,3.40817],[-76.58436,3.40779],[-76.5846,3.40657],[-76.58544,3.40491],[-76.58742,3.40449],[-76.58882,3.40498],[-76.58874,3.40586],[-76.589,3.40619],[-76.58968,3.40587],[-76.59013,3.40659],[-76.59093,3.40629],[-76.59147,3.40681],[-76.59228,3.40653],[-76.59285,3.40671],[-76.59343,3.40626],[-76.5941,3.40685],[-76.59556,3.40718],[-76.59652,3.40816],[-76.59864,3.40782],[-76.60085,3.40829],[-76.60319,3.40753],[-76.60442,3.40776],[-76.60664,3.4088],[-76.60945,3.40887],[-76.61088,3.40715],[-76.61249,3.40351],[-76.61375,3.40292],[-76.61602,3.40296],[-76.61788,3.40216],[-76.62089,3.40207],[-76.62455,3.39919],[-76.62518,3.39802],[-76.6263,3.39712],[-76.63678,3.39412],[-76.64104,3.39375],[-76.64339,3.39436],[-76.64485,3.39435],[-76.64736,3.39184],[-76.64756,3.39105],[-76.64879,3.39002],[-76.65077,3.3873],[-76.65285,3.38056],[-76.65504,3.37796],[-76.65564,3.37563],[-76.65697,3.37363],[-76.65785,3.37162],[-76.6595,3.3699],[-76.66109,3.36914],[-76.66338,3.3644],[-76.66401,3.36365],[-76.66618,3.36241],[-76.66687,3.36128],[-76.66923,3.35998],[-76.67026,3.36098],[-76.67307,3.3621],[-76.67466,3.36142],[-76.67912,3.36172],[-76.68075,3.36251],[-76.6813,3.3632],[-76.68405,3.36453],[-76.68536,3.36558],[-76.68782,3.36559],[-76.69021,3.36601],[-76.69061,3.36625],[-76.69076,3.36709],[-76.69231,3.36677],[-76.69441,3.36771],[-76.69374,3.36976],[-76.69357,3.3719],[-76.69356,3.37419],[-76.69392,3.37531],[-76.69364,3.37842],[-76.6926,3.38083],[-76.69123,3.3825],[-76.69129,3.38414],[-76.69088,3.38545],[-76.68972,3.3862],[-76.68855,3.38807],[-76.68899,3.38896],[-76.69019,3.38964],[-76.68932,3.3931],[-76.6886,3.39417],[-76.68805,3.39602],[-76.68819,3.39712],[-76.68757,3.39897],[-76.68777,3.40233],[-76.68817,3.40367],[-76.68879,3.40452],[-76.68894,3.40572],[-76.68783,3.40631],[-76.68301,3.40685],[-76.68229,3.40728],[-76.6808,3.40714],[-76.67973,3.40783],[-76.67739,3.4068],[-76.67517,3.40668],[-76.67441,3.40547],[-76.67375,3.40534],[-76.67294,3.40459],[-76.67239,3.40484],[-76.66685,3.4049],[-76.66479,3.40548],[-76.66448,3.40479],[-76.6637,3.40472],[-76.66276,3.40563],[-76.66135,3.40539],[-76.65853,3.40862],[-76.65813,3.40991],[-76.6584,3.41065],[-76.65798,3.41292],[-76.65707,3.41389],[-76.65657,3.41716],[-76.65561,3.4183],[-76.65671,3.41985],[-76.65559,3.42079],[-76.65421,3.42435],[-76.65429,3.42753],[-76.651,3.42982],[-76.64933,3.4303],[-76.64852,3.43244],[-76.64745,3.43302],[-76.64671,3.43427],[-76.64587,3.43451],[-76.64435,3.43616],[-76.64236,3.43602],[-76.64065,3.43644],[-76.63906,3.43734],[-76.63772,3.43736],[-76.63595,3.43645],[-76.6336,3.43635],[-76.63099,3.43543],[-76.62918,3.4359],[-76.6282,3.43574],[-76.62733,3.43626],[-76.62668,3.43558],[-76.62612,3.43545],[-76.62466,3.43549],[-76.6231,3.43507],[-76.62134,3.43548],[-76.62044,3.43439],[-76.61837,3.43446],[-76.6178,3.43496],[-76.61704,3.4347],[-76.61612,3.4349],[-76.61541,3.43454],[-76.61398,3.43473],[-76.61242,3.43408],[-76.61018,3.4371],[-76.61085,3.43878],[-76.61112,3.44105],[-76.61159,3.44189],[-76.61151,3.444],[-76.61023,3.44434],[-76.60746,3.44373],[-76.60533,3.44468],[-76.60395,3.44435],[-76.60269,3.44522],[-76.60099,3.44506],[-76.60044,3.44553],[-76.60033,3.44663],[-76.59929,3.44746],[-76.59764,3.44749],[-76.5972,3.44861],[-76.59728,3.4496],[-76.59611,3.45087],[-76.596,3.45154],[-76.59712,3.45303],[-76.59716,3.45491],[-76.59881,3.45537],[-76.59905,3.45608],[-76.60015,3.45668],[-76.60094,3.45807],[-76.60086,3.45939],[-76.59862,3.46186],[-76.59723,3.46201],[-76.59564,3.4629],[-76.5942,3.46212]]]}},{"type":"Feature","properties":{"id":"el-saladito","name":"El Saladito"},"geometry":{"type":"Polygon","coordinates":[[[-76.61621,3.49492],[-76.61535,3.49485],[-76.61449,3.49433],[-76.6115,3.49466],[-76.60778,3.49439],[-76.60684,3.49394],[-76.60385,3.49338],[-76.6034,3.49202],[-76.60291,3.49177],[-76.60212,3.49209],[-76.60087,3.49331],[-76.59981,3.49295],[-76.5996,3.49019],[-76.59893,3.48903],[-76.59849,3.48661],[-76.59783,3.4854],[-76.59765,3.48431],[-76.59712,3.4832],[-76.59672,3.48305],[-76.59677,3.48226],[-76.59622,3.48207],[-76.59583,3.48148],[-76.59456,3.48099],[-76.59414,3.48045],[-76.5931,3.48076],[-76.59205,3.47951],[-76.59132,3.47991],[-76.59043,3.47916],[-76.59018,3.47841],[-76.58944,3.4779],[-76.58868,3.47797],[-76.58909,3.4766],[-76.58777,3.47638],[-76.58751,3.47513],[-76.58717,3.47484],[-76.58654,3.475],[-76.58666,3.4742],[-76.58588,3.47291],[-76.58578,3.472],[-76.58509,3.47155],[-76.5854,3.4704],[-76.58526,3.46882],[-76.58455,3.46856],[-76.58493,3.46807],[-76.5848,3.46733],[-76.58539,3.46711],[-76.58541,3.46653],[-76.5843,3.46526],[-76.58327,3.46552],[-76.58299,3.46447],[-76.58204,3.46311],[-76.58148,3.46113],[-76.58054,3.46122],[-76.5797,3.46001],[-76.58242,3.45785],[-76.58256,3.4582],[-76.58316,3.45808],[-76.58377,3.4601],[-76.58535,3.46095],[-76.58641,3.46297],[-76.58758,3.46369],[-76.58814,3.46488],[-76.59003,3.4669],[-76.59076,3.46555],[-76.59007,3.46525],[-76.5884,3.46297],[-76.58734,3.46234],[-76.58758,3.46127],[-76.58579,3.46033],[-76.585,3.45883],[-76.58334,3.45714],[-76.58465,3.45614],[-76.58656,3.45582],[-76.58655,3.45722],[-76.58689,3.45764],[-76.58985,3.459],[-76.59096,3.45782],[-76.59209,3.45768],[-76.59191,3.4595],[-76.59142,3.46057],[-76.59174,3.46171],[-76.59232,3.46202],[-76.59447,3.46215],[-76.59564,3.4629],[-76.59723,3.46201],[-76.5988,3.46172],[-76.60079,3.45952],[-76.60106,3.45802],[-76.60186,3.45792],[-76.60327,3.45696],[-76.60517,3.45722],[-76.60589,3.45641],[-76.60836,3.45756],[-76.60974,3.45784],[-76.60917,3.45949],[-76.61016,3.46067],[-76.61062,3.46064],[-76.61193,3.4617],[-76.61189,3.46227],[-76.61223,3.46252],[-76.61198,3.46325],[-76.61211,3.46512],[-76.61148,3.46648],[-76.61111,3.46836],[-76.61016,3.46952],[-76.61018,3.47047],[-76.61101,3.47055],[-76.61387,3.47284],[-76.61488,3.47375],[-76.61541,3.47486],[-76.61663,3.47519],[-76.61782,3.47498],[-76.61858,3.4754],[-76.61919,3.47522],[-76.61961,3.47547],[-76.62022,3.47743],[-76.62134,3.47847],[-76.62193,3.47978],[-76.62298,3.48085],[-76.6234,3.48263],[-76.62464,3.48486],[-76.62667,3.48566],[-76.62706,3.48654],[-76.62817,3.48774],[-76.62928,3.48774],[-76.62799,3.48943],[-76.62646,3.49286],[-76.62641,3.49384],[-76.62517,3.49525],[-76.62486,3.49675],[-76.62341,3.4995],[-76.623,3.50106],[-76.62265,3.50475],[-76.62281,3.50898],[-76.62336,3.51141],[-76.62309,3.51453],[-76.62201,3.5171],[-76.62147,3.51764],[-76.6221,3.5161],[-76.62206,3.51406],[-76.62058,3.51301],[-76.62053,3.51108],[-76.61989,3.51012],[-76.62046,3.50796],[-76.61994,3.50677],[-76.61949,3.50393],[-76.61912,3.50351],[-76.61742,3.50306],[-76.61599,3.50227],[-76.6156,3.50085],[-76.61438,3.50013],[-76.61407,3.49899],[-76.61307,3.49827],[-76.61259,3.4975],[-76.61278,3.49694],[-76.61359,3.49636],[-76.61604,3.49554],[-76.61621,3.49492]]]}},{"type":"Feature","properties":{"id":"montebello","name":"Montebello"},"geometry":{"type":"Polygon","coordinates":[[[-76.54943,3.49033],[-76.54768,3.49092],[-76.54679,3.48968],[-76.54612,3.48955],[-76.54544,3.4903],[-76.54479,3.49003],[-76.54402,3.49055],[-76.54309,3.48934],[-76.54337,3.48879],[-76.54418,3.48838],[-76.54439,3.4876],[-76.54555,3.48619],[-76.54517,3.48503],[-76.54537,3.48264],[-76.54429,3.48044],[-76.54438,3.47978],[-76.54524,3.47867],[-76.5452,3.47722],[-76.546,3.47614],[-76.54549,3.47466],[-76.54612,3.47332],[-76.54566,3.47053],[-76.54576,3.46942],[-76.54658,3.46787],[-76.54632,3.46666],[-76.54547,3.46639],[-76.54593,3.46533],[-76.54588,3.46343],[-76.54661,3.46169],[-76.5475,3.461],[-76.54839,3.45916],[-76.54894,3.45877],[-76.55018,3.45991],[-76.55035,3.46054],[-76.55106,3.46033],[-76.5525,3.46105],[-76.55265,3.4604],[-76.55465,3.45972],[-76.55447,3.46153],[-76.55589,3.46131],[-76.55764,3.46342],[-76.55839,3.46298],[-76.55916,3.46307],[-76.55936,3.46353],[-76.55798,3.4645],[-76.55841,3.46482],[-76.55892,3.46608],[-76.56012,3.46724],[-76.56045,3.46822],[-76.5603,3.46875],[-76.55924,3.46949],[-76.55837,3.47185],[-76.55772,3.47213],[-76.55702,3.47316],[-76.55606,3.4755],[-76.55509,3.4767],[-76.55463,3.47683],[-76.55371,3.47821],[-76.55416,3.4804],[-76.55352,3.48159],[-76.55379,3.48206],[-76.55344,3.4831],[-76.55435,3.48404],[-76.55405,3.48532],[-76.55305,3.48623],[-76.55322,3.48677],[-76.55235,3.48816],[-76.55191,3.48979],[-76.55206,3.49013],[-76.55163,3.49066],[-76.55092,3.49288],[-76.55026,3.49106],[-76.54943,3.49033]]]}},{"type":"Feature","properties":{"id":"la-castilla","name":"La Castilla"},"geometry":{"type":"Polygon","coordinates":[[[-76.57977,3.51789],[-76.57981,3.51639],[-76.57897,3.51451],[-76.57725,3.51289],[-76.57622,3.50901],[-76.57532,3.50811],[-76.57543,3.50723],[-76.57477,3.50626],[-76.57157,3.50569],[-76.56969,3.50491],[-76.56839,3.50503],[-76.56634,3.50457],[-76.56247,3.50161],[-76.56088,3.49979],[-76.5613,3.49916],[-76.56082,3.4972],[-76.56119,3.49674],[-76.5608,3.49503],[-76.56122,3.49392],[-76.56057,3.49201],[-76.56095,3.49072],[-76.55984,3.49062],[-76.55931,3.48942],[-76.55837,3.48918],[-76.55807,3.48875],[-76.55684,3.48838],[-76.55524,3.48848],[-76.55421,3.48791],[-76.55403,3.48722],[-76.55328,3.487],[-76.55302,3.48647],[-76.55405,3.48532],[-76.55435,3.484],[-76.55344,3.4831],[-76.55379,3.48206],[-76.55352,3.48159],[-76.55416,3.4804],[-76.55371,3.47821],[-76.55463,3.47683],[-76.55509,3.4767],[-76.55606,3.4755],[-76.55618,3.47474],[-76.5577,3.47215],[-76.55837,3.47185],[-76.55924,3.46949],[-76.56044,3.46857],[-76.56014,3.46726],[-76.55892,3.46608],[-76.55799,3.46444],[-76.55936,3.46353],[-76.56095,3.46349],[-76.56111,3.46159],[-76.56141,3.46157],[-76.56159,3.461],[-76.56398,3.45832],[-76.56445,3.45726],[-76.56498,3.4575],[-76.56604,3.4572],[-76.56573,3.45605],[-76.56674,3.45612],[-76.56681,3.45645],[-76.56747,3.45622],[-76.56804,3.45708],[-76.56821,3.45638],[-76.56908,3.45582],[-76.56961,3.45643],[-76.57039,3.45668],[-76.57117,3.45582],[-76.57146,3.45594],[-76.5715,3.45669],[-76.57256,3.45614],[-76.57267,3.457],[-76.57305,3.45739],[-76.57284,3.45833],[-76.57497,3.45806],[-76.57575,3.4601],[-76.57742,3.45938],[-76.57674,3.45862],[-76.57776,3.45851],[-76.57866,3.46012],[-76.57981,3.46003],[-76.58054,3.46122],[-76.58099,3.46137],[-76.58144,3.46107],[-76.582,3.46302],[-76.58299,3.46447],[-76.5832,3.46543],[-76.5836,3.46558],[-76.5843,3.46526],[-76.58541,3.46653],[-76.58539,3.46711],[-76.5848,3.46733],[-76.58493,3.46807],[-76.58455,3.46856],[-76.58526,3.46882],[-76.5854,3.4704],[-76.58509,3.47155],[-76.58578,3.472],[-76.58588,3.47291],[-76.58666,3.4742],[-76.58654,3.475],[-76.58717,3.47484],[-76.58751,3.47513],[-76.58777,3.47638],[-76.58909,3.4766],[-76.58868,3.47797],[-76.58944,3.4779],[-76.59018,3.47841],[-76.59043,3.47916],[-76.59132,3.47991],[-76.59205,3.47951],[-76.5931,3.48076],[-76.59414,3.48045],[-76.59456,3.48099],[-76.59583,3.48148],[-76.59622,3.48207],[-76.59677,3.48226],[-76.59672,3.48305],[-76.59712,3.4832],[-76.59765,3.48431],[-76.59783,3.4854],[-76.59849,3.48661],[-76.59893,3.48903],[-76.5996,3.49019],[-76.59956,3.49295],[-76.60001,3.49368],[-76.60007,3.49518],[-76.60126,3.49661],[-76.60111,3.49743],[-76.60035,3.49845],[-76.60034,3.5003],[-76.60119,3.50102],[-76.60084,3.50192],[-76.59578,3.5029],[-76.59513,3.5041],[-76.59453,3.50407],[-76.59327,3.50489],[-76.59182,3.50506],[-76.59092,3.50585],[-76.59011,3.50717],[-76.58996,3.50831],[-76.58861,3.50893],[-76.58861,3.51064],[-76.58971,3.5116],[-76.59025,3.51269],[-76.58965,3.5136],[-76.58973,3.51432],[-76.58808,3.51621],[-76.58782,3.51728],[-76.58661,3.51925],[-76.58452,3.52465],[-76.5839,3.52405],[-76.58287,3.52123],[-76.58062,3.51939],[-76.57977,3.51789]]]}},{"type":"Feature","properties":{"id":"villacarmelo","name":"Villacarmelo"},"geometry":{"type":"Polygon","coordinates":[[[-76.60945,3.40887],[-76.60625,3.4087],[-76.60442,3.40776],[-76.60319,3.40753],[-76.60085,3.40829],[-76.59864,3.40782],[-76.59652,3.40816],[-76.59556,3.40718],[-76.5941,3.40685],[-76.59343,3.40626],[-76.59285,3.40671],[-76.59228,3.40653],[-76.59147,3.40681],[-76.59093,3.40629],[-76.59013,3.40659],[-76.58968,3.40587],[-76.589,3.40619],[-76.58874,3.40586],[-76.58885,3.40502],[-76.58758,3.40449],[-76.58544,3.40491],[-76.5846,3.40657],[-76.58436,3.40779],[-76.58356,3.40817],[-76.58204,3.4073],[-76.58142,3.40757],[-76.58105,3.40724],[-76.58058,3.40768],[-76.57901,3.40733],[-76.57709,3.40804],[-76.57513,3.40763],[-76.5765,3.40639],[-76.57839,3.40558],[-76.57846,3.40524],[-76.57779,3.40447],[-76.57957,3.4038],[-76.57983,3.40287],[-76.58064,3.40232],[-76.5813,3.40052],[-76.58197,3.40094],[-76.58362,3.40105],[-76.58427,3.40147],[-76.58458,3.40227],[-76.58502,3.40196],[-76.58513,3.4002],[-76.58551,3.39948],[-76.58495,3.39976],[-76.58456,3.39925],[-76.58529,3.39829],[-76.58487,3.39754],[-76.58533,3.39685],[-76.58484,3.39619],[-76.58575,3.39644],[-76.58636,3.39615],[-76.58828,3.39484],[-76.58862,3.39386],[-76.58852,3.39337],[-76.58792,3.39321],[-76.58764,3.39271],[-76.58647,3.392],[-76.58606,3.39127],[-76.58893,3.39101],[-76.59,3.3918],[-76.59067,3.39148],[-76.59099,3.39026],[-76.59013,3.3903],[-76.58996,3.38899],[-76.59133,3.38814],[-76.59197,3.38841],[-76.59183,3.38676],[-76.5923,3.38664],[-76.59225,3.3863],[-76.5929,3.38637],[-76.59332,3.38485],[-76.59284,3.38391],[-76.5937,3.38364],[-76.59437,3.38383],[-76.59371,3.38306],[-76.59445,3.38247],[-76.59437,3.38312],[-76.59518,3.38304],[-76.59657,3.38191],[-76.59673,3.38078],[-76.59646,3.38048],[-76.59719,3.3803],[-76.59753,3.38109],[-76.59801,3.38073],[-76.5978,3.38025],[-76.59826,3.37934],[-76.59816,3.37731],[-76.59962,3.37648],[-76.59975,3.37605],[-76.60056,3.37604],[-76.60137,3.37528],[-76.60229,3.37572],[-76.60481,3.37504],[-76.60765,3.37301],[-76.60814,3.37228],[-76.60833,3.3708],[-76.60974,3.36871],[-76.61086,3.36813],[-76.61248,3.36623],[-76.61465,3.36568],[-76.61527,3.36514],[-76.61633,3.36298],[-76.61661,3.36091],[-76.62033,3.35966],[-76.62205,3.36036],[-76.62401,3.36056],[-76.6254,3.35902],[-76.62591,3.35915],[-76.62621,3.35858],[-76.62756,3.35819],[-76.62967,3.35681],[-76.63124,3.35504],[-76.63177,3.35298],[-76.63249,3.35274],[-76.63338,3.35164],[-76.63386,3.35149],[-76.6369,3.35241],[-76.6434,3.35114],[-76.64592,3.35184],[-76.64879,3.35216],[-76.65197,3.3515],[-76.65426,3.35194],[-76.65581,3.35184],[-76.66039,3.35315],[-76.66766,3.3564],[-76.66923,3.35998],[-76.66687,3.36128],[-76.66618,3.36241],[-76.66401,3.36365],[-76.66338,3.3644],[-76.66109,3.36914],[-76.6595,3.3699],[-76.65785,3.37162],[-76.65697,3.37363],[-76.65564,3.37563],[-76.65504,3.37796],[-76.65285,3.38056],[-76.65077,3.3873],[-76.64879,3.39002],[-76.64756,3.39105],[-76.64736,3.39184],[-76.64485,3.39435],[-76.64339,3.39436],[-76.64104,3.39375],[-76.63678,3.39412],[-76.6263,3.39712],[-76.62518,3.39802],[-76.62455,3.39919],[-76.62089,3.40207],[-76.61788,3.40216],[-76.61602,3.40296],[-76.61375,3.40292],[-76.61249,3.40351],[-76.61108,3.40676],[-76.60996,3.40848],[-76.60945,3.40887]]]}},{"type":"Feature","properties":{"id":"la-buitrera","name":"La Buitrera"},"geometry":{"type":"Polygon","coordinates":[[[-76.55906,3.41146],[-76.55789,3.40921],[-76.55816,3.40697],[-76.55649,3.40635],[-76.55803,3.39477],[-76.55888,3.39544],[-76.55975,3.39557],[-76.56017,3.3952],[-76.56077,3.3954],[-76.56156,3.39492],[-76.56156,3.39265],[-76.56129,3.39187],[-76.56149,3.39082],[-76.56271,3.39037],[-76.56214,3.38961],[-76.56353,3.38878],[-76.56291,3.38792],[-76.56231,3.38753],[-76.5619,3.38773],[-76.56163,3.38738],[-76.56176,3.38707],[-76.56273,3.38731],[-76.56242,3.38662],[-76.56189,3.38672],[-76.5612,3.38555],[-76.56171,3.38458],[-76.56135,3.38431],[-76.56151,3.38338],[-76.56112,3.38296],[-76.56158,3.3824],[-76.56004,3.38112],[-76.55956,3.37964],[-76.56058,3.38011],[-76.56139,3.37965],[-76.56129,3.37833],[-76.56011,3.3774],[-76.56058,3.37558],[-76.56144,3.37584],[-76.56132,3.3738],[-76.56193,3.37294],[-76.56175,3.37089],[-76.56037,3.36951],[-76.5598,3.37004],[-76.55927,3.36983],[-76.55927,3.36822],[-76.55817,3.36746],[-76.55573,3.3675],[-76.55493,3.36809],[-76.55402,3.36734],[-76.55106,3.36634],[-76.55053,3.36731],[-76.54967,3.36796],[-76.54899,3.36966],[-76.54907,3.37027],[-76.54205,3.36139],[-76.54436,3.35922],[-76.54454,3.35727],[-76.54425,3.35669],[-76.54695,3.35497],[-76.54659,3.35343],[-76.54875,3.35031],[-76.5504,3.34558],[-76.55213,3.34664],[-76.55577,3.34802],[-76.56239,3.3495],[-76.56362,3.34901],[-76.56545,3.3494],[-76.56714,3.34875],[-76.57176,3.34884],[-76.5741,3.34817],[-76.57819,3.34784],[-76.5802,3.34847],[-76.58256,3.34842],[-76.58482,3.34738],[-76.58695,3.34703],[-76.58788,3.34632],[-76.59014,3.34629],[-76.59048,3.34858],[-76.59098,3.34947],[-76.59252,3.34911],[-76.59285,3.34865],[-76.59385,3.34963],[-76.59504,3.34943],[-76.59518,3.34976],[-76.59464,3.35105],[-76.59488,3.35218],[-76.59669,3.35225],[-76.59653,3.353],[-76.59718,3.35387],[-76.59721,3.35466],[-76.59823,3.35454],[-76.59916,3.35582],[-76.60126,3.35695],[-76.60251,3.35824],[-76.60263,3.35908],[-76.60375,3.35959],[-76.60399,3.36066],[-76.60468,3.36127],[-76.60472,3.36175],[-76.60536,3.36171],[-76.60563,3.36237],[-76.60685,3.36196],[-76.60773,3.36205],[-76.60874,3.36142],[-76.60958,3.36138],[-76.61097,3.36185],[-76.61228,3.36181],[-76.614,3.36289],[-76.61587,3.36183],[-76.61651,3.36113],[-76.61633,3.36298],[-76.61527,3.36514],[-76.61465,3.36568],[-76.61248,3.36623],[-76.61086,3.36813],[-76.60974,3.36871],[-76.60833,3.3708],[-76.60814,3.37228],[-76.60765,3.37301],[-76.60481,3.37504],[-76.60229,3.37572],[-76.60137,3.37528],[-76.60056,3.37604],[-76.59975,3.37605],[-76.59962,3.37648],[-76.59816,3.37731],[-76.59826,3.37934],[-76.5978,3.38025],[-76.59801,3.38073],[-76.59753,3.38109],[-76.59719,3.3803],[-76.59646,3.38048],[-76.59673,3.38078],[-76.59657,3.38191],[-76.59518,3.38304],[-76.59437,3.38312],[-76.59445,3.38247],[-76.59371,3.38306],[-76.59437,3.38383],[-76.5937,3.38364],[-76.59284,3.38391],[-76.59332,3.38485],[-76.5929,3.38637],[-76.59225,3.3863],[-76.5923,3.38664],[-76.59183,3.38676],[-76.59197,3.38841],[-76.59133,3.38814],[-76.58996,3.38899],[-76.59013,3.3903],[-76.59099,3.39026],[-76.59067,3.39148],[-76.59,3.3918],[-76.58893,3.39101],[-76.58606,3.39127],[-76.58647,3.392],[-76.58764,3.39271],[-76.58792,3.39321],[-76.58852,3.39337],[-76.58862,3.39386],[-76.58828,3.39484],[-76.58636,3.39615],[-76.58575,3.39644],[-76.58484,3.39619],[-76.58533,3.39685],[-76.58487,3.39754],[-76.58529,3.39829],[-76.58456,3.39925],[-76.58495,3.39976],[-76.58551,3.3995],[-76.58482,3.40215],[-76.58441,3.40217],[-76.58427,3.40147],[-76.58362,3.40105],[-76.58197,3.40094],[-76.5813,3.40052],[-76.58064,3.40232],[-76.57983,3.40287],[-76.57957,3.4038],[-76.57779,3.40447],[-76.57846,3.40524],[-76.57835,3.40562],[-76.57759,3.40574],[-76.57559,3.40699],[-76.57545,3.40748],[-76.57439,3.40795],[-76.57463,3.4084],[-76.57427,3.409],[-76.57365,3.40874],[-76.57231,3.40973],[-76.57081,3.41026],[-76.57046,3.41026],[-76.57035,3.40925],[-76.56912,3.40877],[-76.5689,3.40941],[-76.56933,3.40936],[-76.56962,3.41001],[-76.56918,3.41094],[-76.56815,3.41065],[-76.56835,3.40981],[-76.568,3.40935],[-76.56695,3.40944],[-76.56706,3.41039],[-76.56563,3.41081],[-76.56547,3.40988],[-76.5651,3.40971],[-76.56577,3.40823],[-76.56503,3.40735],[-76.56441,3.40751],[-76.56363,3.40721],[-76.56252,3.40986],[-76.56151,3.41028],[-76.56134,3.40987],[-76.56081,3.4104],[-76.56027,3.4103],[-76.55978,3.41068],[-76.55944,3.41156],[-76.55906,3.41146]]]}},{"type":"Feature","properties":{"id":"felidia","name":"Felidia"},"geometry":{"type":"Polygon","coordinates":[[[-76.61927,3.47525],[-76.61861,3.47541],[-76.61782,3.47498],[-76.61663,3.47519],[-76.61541,3.47486],[-76.61488,3.47375],[-76.61387,3.47284],[-76.61101,3.47055],[-76.61018,3.47047],[-76.61016,3.46952],[-76.61111,3.46836],[-76.61148,3.46648],[-76.61213,3.46503],[-76.61202,3.46186],[-76.61067,3.4606],[-76.61172,3.46064],[-76.61476,3.46226],[-76.6155,3.46205],[-76.61642,3.46346],[-76.61693,3.46365],[-76.6197,3.46284],[-76.62164,3.46366],[-76.6222,3.46317],[-76.62329,3.46315],[-76.62351,3.46195],[-76.62452,3.46213],[-76.62489,3.4617],[-76.62729,3.46172],[-76.6278,3.46262],[-76.62904,3.46256],[-76.62994,3.46207],[-76.63007,3.46135],[-76.63089,3.46092],[-76.63162,3.4598],[-76.63272,3.45958],[-76.63375,3.45852],[-76.6359,3.45841],[-76.63734,3.45791],[-76.64131,3.45924],[-76.64233,3.45871],[-76.64256,3.45948],[-76.64321,3.45983],[-76.6446,3.45986],[-76.64516,3.45937],[-76.64469,3.45832],[-76.64591,3.45798],[-76.64643,3.45737],[-76.64774,3.45777],[-76.64841,3.45746],[-76.64991,3.45781],[-76.65113,3.45752],[-76.65162,3.45682],[-76.65185,3.45554],[-76.65293,3.45588],[-76.65347,3.45574],[-76.65558,3.45317],[-76.65645,3.45344],[-76.65795,3.45318],[-76.65805,3.45405],[-76.65932,3.45481],[-76.65996,3.45496],[-76.66069,3.45462],[-76.66241,3.45541],[-76.66278,3.45485],[-76.6627,3.45423],[-76.66403,3.4523],[-76.66464,3.45186],[-76.66553,3.45182],[-76.66657,3.45096],[-76.66826,3.45055],[-76.67155,3.45153],[-76.67235,3.45227],[-76.67351,3.45234],[-76.67384,3.45112],[-76.67474,3.45172],[-76.67522,3.45167],[-76.67531,3.45107],[-76.67486,3.45058],[-76.67513,3.44959],[-76.67629,3.45002],[-76.67703,3.4499],[-76.67656,3.4488],[-76.6774,3.4478],[-76.67798,3.44636],[-76.67798,3.44543],[-76.67674,3.44126],[-76.67677,3.44042],[-76.67748,3.43935],[-76.67759,3.43861],[-76.679,3.4374],[-76.68167,3.43653],[-76.68309,3.43554],[-76.68532,3.43242],[-76.6877,3.43217],[-76.68794,3.43162],[-76.69006,3.43009],[-76.6916,3.4282],[-76.69107,3.42571],[-76.69045,3.42507],[-76.69043,3.42333],[-76.68954,3.42173],[-76.68936,3.41837],[-76.68837,3.4172],[-76.68852,3.4151],[-76.68901,3.4139],[-76.68683,3.41125],[-76.68788,3.40727],[-76.68894,3.40572],[-76.68879,3.40452],[-76.68817,3.40367],[-76.68774,3.40202],[-76.68757,3.39897],[-76.68819,3.39712],[-76.68805,3.39602],[-76.6886,3.39417],[-76.68932,3.3931],[-76.69135,3.39446],[-76.69199,3.39565],[-76.69303,3.3963],[-76.69356,3.39821],[-76.69589,3.40141],[-76.69642,3.40312],[-76.69728,3.40354],[-76.69804,3.40822],[-76.69804,3.41249],[-76.69935,3.41615],[-76.70102,3.41863],[-76.70253,3.4193],[-76.7052,3.42679],[-76.70718,3.42879],[-76.70684,3.43036],[-76.70678,3.4337],[-76.70602,3.43462],[-76.70489,3.43519],[-76.70558,3.43941],[-76.70531,3.44174],[-76.70412,3.44265],[-76.70292,3.4454],[-76.7007,3.44518],[-76.69792,3.44547],[-76.69638,3.44743],[-76.69416,3.44932],[-76.69252,3.45029],[-76.69227,3.45219],[-76.6926,3.45595],[-76.69152,3.45733],[-76.69055,3.46139],[-76.68937,3.46137],[-76.68865,3.46206],[-76.6864,3.46288],[-76.6854,3.46438],[-76.68469,3.46486],[-76.68376,3.46496],[-76.68325,3.46478],[-76.68349,3.46344],[-76.68312,3.46284],[-76.6797,3.46281],[-76.67714,3.4638],[-76.67619,3.46326],[-76.67522,3.46154],[-76.67452,3.4615],[-76.67297,3.46245],[-76.67076,3.46313],[-76.6677,3.46521],[-76.66721,3.46617],[-76.66542,3.46802],[-76.66313,3.46771],[-76.6625,3.46738],[-76.66212,3.46655],[-76.65907,3.46612],[-76.65772,3.46669],[-76.65556,3.46678],[-76.65394,3.46727],[-76.65047,3.46726],[-76.6488,3.46826],[-76.64852,3.46905],[-76.64768,3.46903],[-76.64635,3.47001],[-76.64562,3.47132],[-76.64496,3.47182],[-76.64401,3.47636],[-76.6401,3.4812],[-76.63825,3.48222],[-76.63726,3.48355],[-76.63508,3.48509],[-76.62928,3.48774],[-76.62817,3.48774],[-76.62706,3.48654],[-76.62667,3.48566],[-76.62464,3.48486],[-76.6234,3.48263],[-76.62298,3.48085],[-76.62193,3.47978],[-76.62134,3.47847],[-76.62022,3.47743],[-76.61972,3.47566],[-76.61927,3.47525]]]}},{"type":"Feature","properties":{"id":"la-elvira","name":"La Elvira"},"geometry":{"type":"Polygon","coordinates":[[[-76.59173,3.54685],[-76.58965,3.54685],[-76.58741,3.54601],[-76.58591,3.5461],[-76.58597,3.54416],[-76.58658,3.54271],[-76.58663,3.54133],[-76.58591,3.53463],[-76.58614,3.53163],[-76.58566,3.53037],[-76.58273,3.52694],[-76.58451,3.52466],[-76.58808,3.51621],[-76.58974,3.5143],[-76.58965,3.5136],[-76.5902,3.51285],[-76.59021,3.51228],[-76.58861,3.51064],[-76.58857,3.50901],[-76.58996,3.50831],[-76.59011,3.50717],[-76.59092,3.50585],[-76.59182,3.50506],[-76.59327,3.50489],[-76.59453,3.50407],[-76.59513,3.5041],[-76.59578,3.5029],[-76.59974,3.50195],[-76.60074,3.50198],[-76.60113,3.50155],[-76.60111,3.50082],[-76.60033,3.50026],[-76.60034,3.49859],[-76.60048,3.49796],[-76.60111,3.49743],[-76.60126,3.49662],[-76.60007,3.49518],[-76.60021,3.49456],[-76.59958,3.49308],[-76.59965,3.49257],[-76.59982,3.49297],[-76.60079,3.49333],[-76.60212,3.49209],[-76.60291,3.49177],[-76.6034,3.49202],[-76.60385,3.49338],[-76.60684,3.49394],[-76.60778,3.49439],[-76.6115,3.49466],[-76.61449,3.49433],[-76.61535,3.49485],[-76.61624,3.49493],[-76.61628,3.49526],[-76.61573,3.49573],[-76.61452,3.49597],[-76.61301,3.49674],[-76.61263,3.49763],[-76.61407,3.49899],[-76.61438,3.50013],[-76.6156,3.50085],[-76.61599,3.50227],[-76.6194,3.50377],[-76.61991,3.50547],[-76.61994,3.50677],[-76.62046,3.50796],[-76.61989,3.51012],[-76.62053,3.51108],[-76.62058,3.51301],[-76.62086,3.5134],[-76.62192,3.51376],[-76.62217,3.51516],[-76.62207,3.51619],[-76.62144,3.51749],[-76.62037,3.51827],[-76.62009,3.51918],[-76.61929,3.51973],[-76.61809,3.52201],[-76.61773,3.52368],[-76.61821,3.52545],[-76.61744,3.5266],[-76.618,3.5284],[-76.61772,3.52965],[-76.61627,3.53172],[-76.61356,3.53138],[-76.61339,3.53194],[-76.61028,3.53443],[-76.60964,3.53605],[-76.60745,3.53936],[-76.60674,3.5409],[-76.60665,3.54209],[-76.60454,3.54217],[-76.60391,3.54312],[-76.60228,3.54408],[-76.6007,3.54685],[-76.59981,3.54719],[-76.59887,3.54658],[-76.59627,3.54604],[-76.59618,3.54654],[-76.5945,3.54795],[-76.59255,3.54853],[-76.59173,3.54685]]]}},{"type":"Feature","properties":{"id":"la-paz","name":"La Paz"},"geometry":{"type":"Polygon","coordinates":[[[-76.57347,3.5195],[-76.5716,3.52007],[-76.57037,3.51999],[-76.57009,3.52059],[-76.56853,3.52095],[-76.56658,3.52071],[-76.56558,3.51814],[-76.56463,3.51693],[-76.56448,3.51606],[-76.56306,3.51359],[-76.558,3.51304],[-76.55448,3.51144],[-76.55273,3.51157],[-76.55344,3.51076],[-76.55391,3.50871],[-76.5554,3.50625],[-76.5568,3.50573],[-76.55782,3.50302],[-76.55881,3.5026],[-76.56052,3.50031],[-76.56136,3.50006],[-76.56146,3.50058],[-76.56247,3.50161],[-76.56634,3.50457],[-76.56839,3.50503],[-76.56969,3.50491],[-76.57157,3.50569],[-76.57477,3.50626],[-76.57543,3.50723],[-76.57532,3.50811],[-76.57622,3.50901],[-76.57725,3.51289],[-76.57892,3.51444],[-76.57981,3.51639],[-76.57956,3.51692],[-76.58003,3.51838],[-76.58062,3.51939],[-76.58287,3.52123],[-76.5839,3.52405],[-76.58451,3.52466],[-76.58273,3.52694],[-76.58187,3.5255],[-76.5793,3.52327],[-76.57807,3.52275],[-76.57717,3.52173],[-76.57347,3.5195]]]}},{"type":"Feature","properties":{"id":"la-leonera","name":"La Leonera"},"geometry":{"type":"Polygon","coordinates":[[[-76.61649,3.46351],[-76.6155,3.46205],[-76.61467,3.46223],[-76.6116,3.4606],[-76.61019,3.4607],[-76.60917,3.45949],[-76.60982,3.45804],[-76.60966,3.45777],[-76.60892,3.45772],[-76.60843,3.45658],[-76.60867,3.45307],[-76.60849,3.44896],[-76.61051,3.44814],[-76.61254,3.4483],[-76.61531,3.44756],[-76.61791,3.4492],[-76.61861,3.45026],[-76.61977,3.45036],[-76.6222,3.45142],[-76.62363,3.45004],[-76.62548,3.45],[-76.62667,3.44921],[-76.63125,3.44491],[-76.632,3.44468],[-76.63384,3.44493],[-76.63669,3.44636],[-76.63777,3.44658],[-76.63976,3.44542],[-76.64206,3.4453],[-76.64338,3.44437],[-76.64534,3.44426],[-76.64664,3.44585],[-76.64922,3.44593],[-76.65266,3.44737],[-76.65363,3.44594],[-76.65492,3.44477],[-76.65553,3.44324],[-76.65696,3.44211],[-76.65944,3.44117],[-76.65993,3.44035],[-76.66086,3.43988],[-76.66069,3.43924],[-76.6645,3.43616],[-76.66548,3.43483],[-76.66649,3.43424],[-76.66644,3.43326],[-76.66572,3.43159],[-76.66633,3.43081],[-76.66934,3.4294],[-76.67013,3.4277],[-76.67026,3.42644],[-76.67024,3.42518],[-76.66977,3.42376],[-76.67026,3.42331],[-76.6703,3.42258],[-76.67135,3.42174],[-76.67278,3.4199],[-76.67453,3.41458],[-76.67534,3.41379],[-76.67593,3.4125],[-76.68069,3.41135],[-76.68559,3.41177],[-76.68683,3.41125],[-76.68886,3.41344],[-76.68901,3.4139],[-76.68852,3.4151],[-76.68837,3.4172],[-76.68936,3.41837],[-76.68954,3.42173],[-76.69043,3.42333],[-76.69045,3.42507],[-76.69107,3.42571],[-76.6916,3.4282],[-76.69006,3.43009],[-76.68794,3.43162],[-76.6877,3.43217],[-76.68532,3.43242],[-76.68309,3.43554],[-76.68167,3.43653],[-76.679,3.4374],[-76.67759,3.43861],[-76.67748,3.43935],[-76.67677,3.44042],[-76.67674,3.44126],[-76.67798,3.44543],[-76.67797,3.44644],[-76.6774,3.4478],[-76.67656,3.4488],[-76.67703,3.4499],[-76.67636,3.45003],[-76.67533,3.44953],[-76.67502,3.44969],[-76.67486,3.45058],[-76.67531,3.45107],[-76.67516,3.45173],[-76.67395,3.45108],[-76.67351,3.45234],[-76.67285,3.45236],[-76.6723,3.45225],[-76.67155,3.45153],[-76.66789,3.45055],[-76.66642,3.45103],[-76.66553,3.45182],[-76.6643,3.45203],[-76.6627,3.45423],[-76.66278,3.45485],[-76.66246,3.4554],[-76.66069,3.45462],[-76.65996,3.45496],[-76.65932,3.45481],[-76.65805,3.45405],[-76.65795,3.45318],[-76.65645,3.45344],[-76.6556,3.45317],[-76.65347,3.45574],[-76.65293,3.45588],[-76.65185,3.45554],[-76.65162,3.45682],[-76.65113,3.45752],[-76.64991,3.45781],[-76.64841,3.45746],[-76.64774,3.45777],[-76.64643,3.45737],[-76.64591,3.45798],[-76.64469,3.45832],[-76.64516,3.45937],[-76.6446,3.45986],[-76.64321,3.45983],[-76.64256,3.45948],[-76.64233,3.45871],[-76.64131,3.45924],[-76.63729,3.4579],[-76.6359,3.45841],[-76.63364,3.45856],[-76.63272,3.45958],[-76.63162,3.4598],[-76.63089,3.46092],[-76.63007,3.46135],[-76.62994,3.46207],[-76.62907,3.46256],[-76.62785,3.46264],[-76.62752,3.4618],[-76.62634,3.46163],[-76.6254,3.46189],[-76.62484,3.46171],[-76.62452,3.46213],[-76.62355,3.46193],[-76.62329,3.46315],[-76.6222,3.46317],[-76.62164,3.46366],[-76.6197,3.46284],[-76.61819,3.46308],[-76.6171,3.46367],[-76.61649,3.46351]]]}},{"type":"Feature","properties":{"id":"pichinde","name":"Pichinde"},"geometry":{"type":"Polygon","coordinates":[[[-76.60099,3.45833],[-76.60008,3.4566],[-76.59885,3.45588],[-76.59881,3.45537],[-76.59716,3.45491],[-76.59712,3.45303],[-76.59602,3.45162],[-76.59611,3.45087],[-76.59728,3.4496],[-76.5972,3.44861],[-76.59757,3.44761],[-76.59784,3.44735],[-76.59929,3.44746],[-76.60033,3.44663],[-76.60044,3.44553],[-76.60099,3.44506],[-76.60269,3.44522],[-76.60395,3.44435],[-76.60533,3.44468],[-76.60746,3.44373],[-76.61023,3.44434],[-76.61151,3.444],[-76.61159,3.44189],[-76.61112,3.44105],[-76.61085,3.43878],[-76.61018,3.4371],[-76.61242,3.43408],[-76.61398,3.43473],[-76.61541,3.43454],[-76.61612,3.4349],[-76.61704,3.4347],[-76.6178,3.43496],[-76.61837,3.43446],[-76.62044,3.43439],[-76.62134,3.43548],[-76.6231,3.43507],[-76.62466,3.43549],[-76.62612,3.43545],[-76.62668,3.43558],[-76.62733,3.43626],[-76.6282,3.43574],[-76.62918,3.4359],[-76.63099,3.43543],[-76.6336,3.43635],[-76.63595,3.43645],[-76.63772,3.43736],[-76.63906,3.43734],[-76.64065,3.43644],[-76.64236,3.43602],[-76.64435,3.43616],[-76.64587,3.43451],[-76.64671,3.43427],[-76.64745,3.43302],[-76.64852,3.43244],[-76.64933,3.4303],[-76.651,3.42982],[-76.65429,3.42753],[-76.65421,3.42435],[-76.65559,3.42079],[-76.65671,3.41985],[-76.65561,3.4183],[-76.65657,3.41716],[-76.65707,3.41389],[-76.65798,3.41292],[-76.6584,3.41065],[-76.65813,3.40991],[-76.65853,3.40862],[-76.66135,3.40539],[-76.66276,3.40563],[-76.6637,3.40472],[-76.66448,3.40479],[-76.66479,3.40548],[-76.66685,3.4049],[-76.67239,3.40484],[-76.67294,3.40459],[-76.67375,3.40534],[-76.67441,3.40547],[-76.67517,3.40668],[-76.67739,3.4068],[-76.67973,3.40783],[-76.6808,3.40714],[-76.68229,3.40728],[-76.68301,3.40685],[-76.68783,3.40631],[-76.68894,3.40572],[-76.68788,3.40727],[-76.68674,3.41133],[-76.68559,3.41177],[-76.68069,3.41135],[-76.67593,3.4125],[-76.67534,3.41379],[-76.67453,3.41458],[-76.67278,3.4199],[-76.67135,3.42174],[-76.6703,3.42258],[-76.67026,3.42331],[-76.66977,3.42376],[-76.67024,3.42518],[-76.67026,3.42644],[-76.67013,3.4277],[-76.66934,3.4294],[-76.66633,3.43081],[-76.66572,3.43159],[-76.66644,3.43326],[-76.66649,3.43424],[-76.66548,3.43483],[-76.6645,3.43616],[-76.66069,3.43924],[-76.66086,3.43988],[-76.65993,3.44035],[-76.65944,3.44117],[-76.65696,3.44211],[-76.65553,3.44324],[-76.65492,3.44477],[-76.65363,3.44594],[-76.65266,3.44737],[-76.64922,3.44593],[-76.64664,3.44585],[-76.64534,3.44426],[-76.64338,3.44437],[-76.64206,3.4453],[-76.63976,3.44542],[-76.63777,3.44658],[-76.63669,3.44636],[-76.63384,3.44493],[-76.63171,3.44471],[-76.62904,3.44681],[-76.62814,3.44803],[-76.62667,3.44921],[-76.62548,3.45],[-76.62363,3.45004],[-76.6222,3.45142],[-76.61977,3.45036],[-76.61861,3.45026],[-76.61791,3.4492],[-76.61531,3.44756],[-76.61254,3.4483],[-76.61051,3.44814],[-76.60836,3.44923],[-76.60867,3.45307],[-76.60843,3.45658],[-76.60892,3.45772],[-76.60589,3.45641],[-76.60517,3.45722],[-76.60327,3.45696],[-76.60186,3.45792],[-76.60115,3.45795],[-76.60099,3.45833]]]}},{"type":"Feature","properties":{"id":"el-hormiguero","name":"El Hormiguero"},"geometry":{"type":"Polygon","coordinates":[[[-76.49699,3.37265],[-76.49607,3.37223],[-76.49037,3.37139],[-76.48692,3.37324],[-76.4834,3.3769],[-76.47998,3.37809],[-76.47808,3.37795],[-76.47822,3.37613],[-76.47776,3.375],[-76.47784,3.37372],[-76.47936,3.3719],[-76.48193,3.37003],[-76.48412,3.36677],[-76.48545,3.36271],[-76.48567,3.36008],[-76.48641,3.3584],[-76.48781,3.35648],[-76.48753,3.35611],[-76.48461,3.35677],[-76.48366,3.35666],[-76.48282,3.35704],[-76.48177,3.35843],[-76.48146,3.3623],[-76.48095,3.36343],[-76.47963,3.36532],[-76.4783,3.36617],[-76.47597,3.36658],[-76.47417,3.36591],[-76.47324,3.36491],[-76.4729,3.3625],[-76.4726,3.36234],[-76.47065,3.36233],[-76.46713,3.36368],[-76.4658,3.36377],[-76.46438,3.35922],[-76.46388,3.35843],[-76.46283,3.35737],[-76.46093,3.35716],[-76.46042,3.35656],[-76.46048,3.35572],[-76.46235,3.35366],[-76.46337,3.35144],[-76.46354,3.34991],[-76.46275,3.34651],[-76.46406,3.34438],[-76.46418,3.34294],[-76.46351,3.34113],[-76.4604,3.33701],[-76.46023,3.33443],[-76.46085,3.33244],[-76.4608,3.32937],[-76.45884,3.32518],[-76.45928,3.32431],[-76.46134,3.32272],[-76.46177,3.32196],[-76.46183,3.32023],[-76.46107,3.31777],[-76.46184,3.31667],[-76.46299,3.31648],[-76.46384,3.31682],[-76.46642,3.32065],[-76.46704,3.32111],[-76.46798,3.32071],[-76.46834,3.31974],[-76.46832,3.31812],[-76.46769,3.31506],[-76.46772,3.31359],[-76.46825,3.3113],[-76.46897,3.3106],[-76.47001,3.31063],[-76.47083,3.31102],[-76.47182,3.31226],[-76.4725,3.31452],[-76.47245,3.31791],[-76.47338,3.31975],[-76.47574,3.32093],[-76.47727,3.32093],[-76.47809,3.32046],[-76.47857,3.31946],[-76.47838,3.31782],[-76.47584,3.31418],[-76.47535,3.31056],[-76.47408,3.3076],[-76.47355,3.30526],[-76.474,3.30406],[-76.4763,3.30247],[-76.47741,3.30107],[-76.47746,3.30002],[-76.47666,3.29764],[-76.47671,3.2946],[-76.47767,3.29335],[-76.47897,3.29267],[-76.48105,3.29293],[-76.48219,3.29355],[-76.4833,3.2945],[-76.48413,3.29623],[-76.48511,3.30347],[-76.48572,3.3043],[-76.48707,3.30513],[-76.48876,3.30528],[-76.48976,3.30492],[-76.49014,3.304],[-76.4897,3.30025],[-76.49008,3.29785],[-76.49114,3.29634],[-76.49398,3.29369],[-76.49435,3.29265],[-76.49398,3.29074],[-76.49277,3.28939],[-76.49363,3.28875],[-76.49371,3.28744],[-76.49344,3.28663],[-76.49263,3.28598],[-76.49254,3.28532],[-76.4939,3.282],[-76.49476,3.2813],[-76.49392,3.27913],[-76.4947,3.27849],[-76.49614,3.27928],[-76.49676,3.27921],[-76.49635,3.27834],[-76.49683,3.27779],[-76.49683,3.27686],[-76.498,3.27669],[-76.49842,3.2761],[-76.49774,3.27466],[-76.4995,3.27334],[-76.50034,3.27563],[-76.49987,3.27668],[-76.50106,3.27779],[-76.50145,3.27926],[-76.50209,3.27851],[-76.50263,3.27845],[-76.50398,3.27929],[-76.50447,3.28039],[-76.50545,3.2807],[-76.50603,3.28037],[-76.50679,3.27908],[-76.50846,3.27796],[-76.50977,3.27778],[-76.51204,3.27864],[-76.51262,3.27775],[-76.51356,3.2775],[-76.51439,3.27811],[-76.5173,3.27917],[-76.51807,3.28093],[-76.51901,3.28075],[-76.51981,3.28118],[-76.52158,3.28312],[-76.52141,3.28411],[-76.52182,3.28475],[-76.52519,3.28607],[-76.52125,3.302],[-76.52151,3.30611],[-76.52245,3.3092],[-76.52286,3.31392],[-76.52217,3.32649],[-76.52286,3.33101],[-76.52453,3.33791],[-76.52414,3.34705],[-76.52336,3.35303],[-76.52429,3.36211],[-76.52303,3.36342],[-76.52124,3.36395],[-76.51931,3.36296],[-76.51837,3.36341],[-76.51792,3.3644],[-76.51737,3.36396],[-76.51738,3.36346],[-76.5167,3.36358],[-76.5169,3.36417],[-76.51642,3.36429],[-76.51546,3.3632],[-76.51567,3.36296],[-76.51547,3.36267],[-76.51452,3.36314],[-76.51389,3.36259],[-76.51307,3.36381],[-76.51072,3.36491],[-76.51073,3.36735],[-76.50932,3.36845],[-76.50876,3.37188],[-76.50779,3.37338],[-76.50716,3.37351],[-76.50742,3.37397],[-76.50706,3.37576],[-76.50602,3.3763],[-76.50581,3.3786],[-76.50543,3.3788],[-76.50484,3.38006],[-76.50429,3.38033],[-76.49699,3.37265]]]}},{"type":"Feature","properties":{"id":"navarro","name":"Navarro"},"geometry":{"type":"Polygon","coordinates":[[[-76.47251,3.44103],[-76.4712,3.44194],[-76.47041,3.44563],[-76.46924,3.44708],[-76.46739,3.44807],[-76.46648,3.44797],[-76.46559,3.44743],[-76.46473,3.44528],[-76.46582,3.44237],[-76.46595,3.44119],[-76.46517,3.43952],[-76.46257,3.43796],[-76.46135,3.43639],[-76.46091,3.43088],[-76.46001,3.428],[-76.46152,3.42119],[-76.46074,3.41617],[-76.46183,3.41478],[-76.46377,3.41387],[-76.46459,3.41297],[-76.46575,3.40978],[-76.46542,3.40859],[-76.46439,3.40719],[-76.46442,3.40635],[-76.46472,3.40569],[-76.4667,3.40391],[-76.46697,3.403],[-76.46694,3.40189],[-76.46647,3.4007],[-76.46391,3.3962],[-76.46459,3.39094],[-76.4633,3.38773],[-76.46331,3.38671],[-76.4643,3.38452],[-76.46594,3.38233],[-76.46586,3.37954],[-76.46609,3.37912],[-76.46705,3.37901],[-76.46819,3.37977],[-76.46965,3.37966],[-76.47071,3.37905],[-76.47147,3.37769],[-76.46916,3.37413],[-76.46895,3.37234],[-76.46848,3.37129],[-76.46653,3.36953],[-76.46596,3.36859],[-76.46562,3.36714],[-76.46604,3.36474],[-76.4658,3.36377],[-76.46713,3.36368],[-76.47065,3.36233],[-76.4726,3.36234],[-76.4729,3.3625],[-76.47324,3.36491],[-76.47417,3.36591],[-76.47597,3.36658],[-76.4783,3.36617],[-76.47963,3.36532],[-76.48095,3.36343],[-76.48146,3.3623],[-76.48177,3.35843],[-76.48282,3.35704],[-76.48366,3.35666],[-76.48461,3.35677],[-76.48763,3.35614],[-76.48781,3.35648],[-76.48641,3.3584],[-76.48567,3.36008],[-76.48545,3.36271],[-76.48412,3.36677],[-76.48193,3.37003],[-76.47936,3.3719],[-76.47784,3.37372],[-76.47776,3.375],[-76.47822,3.37613],[-76.47808,3.37795],[-76.47998,3.37809],[-76.4834,3.3769],[-76.48692,3.37324],[-76.49068,3.37135],[-76.49673,3.37245],[-76.50429,3.38033],[-76.50484,3.38006],[-76.50543,3.3788],[-76.50581,3.3786],[-76.50602,3.3763],[-76.50706,3.37576],[-76.50742,3.37397],[-76.50716,3.37351],[-76.50779,3.37338],[-76.50876,3.37188],[-76.50932,3.36845],[-76.51073,3.36735],[-76.51066,3.36498],[-76.51307,3.36381],[-76.51378,3.36263],[-76.51409,3.3626],[-76.51425,3.38052],[-76.51398,3.38613],[-76.51304,3.38889],[-76.51141,3.38814],[-76.51001,3.38833],[-76.50828,3.3888],[-76.50703,3.38992],[-76.50478,3.39204],[-76.50327,3.39416],[-76.499,3.40219],[-76.49589,3.40482],[-76.49381,3.40612],[-76.49111,3.4093],[-76.48677,3.41215],[-76.48354,3.41355],[-76.48289,3.41516],[-76.48144,3.41496],[-76.4797,3.41332],[-76.48005,3.41213],[-76.47938,3.40806],[-76.47611,3.40555],[-76.47697,3.40317],[-76.47493,3.3996],[-76.47423,3.39953],[-76.47338,3.40081],[-76.47265,3.4011],[-76.4684,3.40079],[-76.4674,3.39993],[-76.46835,3.40273],[-76.46822,3.40402],[-76.46669,3.40566],[-76.46616,3.40708],[-76.46737,3.41117],[-76.46551,3.4155],[-76.4636,3.41692],[-76.46317,3.41757],[-76.46281,3.4216],[-76.46126,3.42661],[-76.46167,3.4295],[-76.46308,3.43514],[-76.46534,3.43701],[-76.46809,3.43996],[-76.46927,3.44061],[-76.47315,3.4401],[-76.4739,3.44048],[-76.47491,3.44163],[-76.47581,3.44412],[-76.4753,3.44785],[-76.4768,3.4493],[-76.47568,3.44994],[-76.47473,3.44895],[-76.47448,3.44761],[-76.47519,3.44422],[-76.47508,3.44352],[-76.47374,3.44146],[-76.47251,3.44103]]]}},{"type":"Feature","properties":{"id":"pance","name":"Pance"},"geometry":{"type":"Polygon","coordinates":[[[-76.69218,3.36677],[-76.69104,3.36714],[-76.6906,3.36701],[-76.69061,3.36625],[-76.69021,3.36601],[-76.68782,3.36559],[-76.68536,3.36558],[-76.68405,3.36453],[-76.6813,3.3632],[-76.68075,3.36251],[-76.67912,3.36172],[-76.67466,3.36142],[-76.67307,3.3621],[-76.67026,3.36098],[-76.66912,3.35988],[-76.66782,3.35664],[-76.66666,3.35579],[-76.66489,3.35538],[-76.66039,3.35315],[-76.6595,3.3531],[-76.65702,3.35208],[-76.65227,3.35151],[-76.64879,3.35216],[-76.64592,3.35184],[-76.6434,3.35114],[-76.6369,3.35241],[-76.63541,3.3521],[-76.63479,3.3516],[-76.63355,3.35155],[-76.63249,3.35274],[-76.63177,3.35298],[-76.63124,3.35504],[-76.62967,3.35681],[-76.62756,3.35819],[-76.62621,3.35858],[-76.62591,3.35915],[-76.6254,3.35902],[-76.62401,3.36056],[-76.61987,3.35974],[-76.61661,3.36091],[-76.61587,3.36183],[-76.614,3.36289],[-76.61228,3.36181],[-76.61097,3.36185],[-76.60958,3.36138],[-76.60874,3.36142],[-76.60773,3.36205],[-76.60685,3.36196],[-76.60563,3.36237],[-76.60536,3.36171],[-76.60472,3.36175],[-76.60468,3.36127],[-76.60399,3.36066],[-76.60375,3.35959],[-76.60263,3.35908],[-76.60251,3.35824],[-76.60126,3.35695],[-76.59916,3.35582],[-76.59823,3.35454],[-76.59721,3.35466],[-76.59718,3.35387],[-76.59653,3.353],[-76.59669,3.35225],[-76.59488,3.35218],[-76.59464,3.35105],[-76.59518,3.34976],[-76.59504,3.34943],[-76.59385,3.34963],[-76.59285,3.34865],[-76.59252,3.34911],[-76.59098,3.34947],[-76.59048,3.34858],[-76.59014,3.34629],[-76.58788,3.34632],[-76.58695,3.34703],[-76.58482,3.34738],[-76.58256,3.34842],[-76.5802,3.34847],[-76.57819,3.34784],[-76.5741,3.34817],[-76.57176,3.34884],[-76.56714,3.34875],[-76.56545,3.3494],[-76.56362,3.34901],[-76.56239,3.3495],[-76.55612,3.34813],[-76.55132,3.34624],[-76.5504,3.34558],[-76.55168,3.34165],[-76.55008,3.33833],[-76.54994,3.33586],[-76.55119,3.33365],[-76.55037,3.33182],[-76.53263,3.33324],[-76.52876,3.3351],[-76.52565,3.33472],[-76.52394,3.33532],[-76.52281,3.3308],[-76.52217,3.32649],[-76.52286,3.31392],[-76.52245,3.3092],[-76.52151,3.30611],[-76.52125,3.30185],[-76.52519,3.28607],[-76.52645,3.28581],[-76.52709,3.28648],[-76.52824,3.28533],[-76.5285,3.28679],[-76.52926,3.28706],[-76.53062,3.28673],[-76.5305,3.28584],[-76.5308,3.28561],[-76.53276,3.28585],[-76.53388,3.28495],[-76.53302,3.28491],[-76.53322,3.28394],[-76.53284,3.28309],[-76.53395,3.28344],[-76.53549,3.28321],[-76.53465,3.28279],[-76.5357,3.28209],[-76.53629,3.28058],[-76.53756,3.28037],[-76.53925,3.28174],[-76.53986,3.28124],[-76.53992,3.28044],[-76.54227,3.27981],[-76.54276,3.27903],[-76.54403,3.27819],[-76.54449,3.27829],[-76.54429,3.27934],[-76.54245,3.28202],[-76.54304,3.28307],[-76.54303,3.28365],[-76.54377,3.28428],[-76.54353,3.28267],[-76.5445,3.2828],[-76.54539,3.28373],[-76.54531,3.28424],[-76.54614,3.28552],[-76.54616,3.2845],[-76.54695,3.28299],[-76.54754,3.28338],[-76.54794,3.283],[-76.54846,3.28316],[-76.54852,3.28398],[-76.54933,3.28391],[-76.54962,3.28564],[-76.55213,3.28686],[-76.55252,3.28563],[-76.55318,3.28566],[-76.55289,3.28538],[-76.55325,3.28518],[-76.55312,3.2846],[-76.55454,3.28392],[-76.5545,3.28464],[-76.55482,3.28454],[-76.55522,3.2829],[-76.55599,3.28311],[-76.55642,3.28269],[-76.55712,3.28293],[-76.55845,3.28277],[-76.55831,3.28128],[-76.55922,3.28129],[-76.55922,3.28325],[-76.55984,3.28488],[-76.56261,3.28706],[-76.56366,3.28636],[-76.56398,3.2865],[-76.56443,3.28725],[-76.56432,3.28773],[-76.56571,3.28977],[-76.56529,3.29015],[-76.56538,3.29089],[-76.56601,3.29107],[-76.56533,3.29168],[-76.56614,3.29235],[-76.56678,3.29378],[-76.56733,3.29406],[-76.56698,3.29449],[-76.5664,3.29453],[-76.56721,3.29579],[-76.56607,3.29742],[-76.56656,3.29898],[-76.56775,3.29969],[-76.56906,3.29942],[-76.57078,3.29985],[-76.57247,3.30254],[-76.57495,3.30295],[-76.57562,3.30374],[-76.5762,3.30318],[-76.57712,3.30303],[-76.57754,3.30391],[-76.57848,3.30434],[-76.58015,3.3038],[-76.58083,3.30487],[-76.58076,3.3068],[-76.5814,3.30754],[-76.58143,3.3085],[-76.58375,3.30903],[-76.58509,3.30837],[-76.58647,3.30879],[-76.5883,3.30883],[-76.58988,3.30702],[-76.59432,3.30798],[-76.59575,3.3077],[-76.59738,3.30847],[-76.60097,3.30821],[-76.60227,3.30753],[-76.6045,3.30864],[-76.60662,3.30862],[-76.60747,3.31045],[-76.60848,3.31154],[-76.61112,3.31196],[-76.61442,3.31046],[-76.61629,3.30798],[-76.61656,3.30674],[-76.61896,3.30628],[-76.62093,3.30478],[-76.62366,3.3057],[-76.62429,3.30658],[-76.62595,3.30674],[-76.62724,3.30735],[-76.63099,3.30661],[-76.63298,3.30367],[-76.63578,3.30174],[-76.64054,3.2998],[-76.64284,3.29956],[-76.64797,3.30034],[-76.64975,3.3018],[-76.65252,3.3034],[-76.65648,3.30406],[-76.65813,3.30662],[-76.6584,3.30792],[-76.66002,3.30911],[-76.66076,3.31018],[-76.66284,3.31442],[-76.66615,3.31543],[-76.66764,3.31491],[-76.67072,3.31483],[-76.67308,3.31395],[-76.67476,3.31418],[-76.6775,3.31531],[-76.68098,3.31555],[-76.6828,3.31513],[-76.6844,3.3142],[-76.68558,3.31436],[-76.68709,3.31348],[-76.68803,3.31346],[-76.68942,3.31287],[-76.69191,3.31286],[-76.6972,3.31138],[-76.69738,3.31794],[-76.69793,3.31964],[-76.69648,3.32456],[-76.69634,3.32532],[-76.69669,3.32645],[-76.69606,3.32783],[-76.69623,3.32865],[-76.69465,3.33289],[-76.69563,3.33657],[-76.69506,3.33884],[-76.69571,3.34022],[-76.69487,3.34307],[-76.69724,3.34526],[-76.69821,3.3474],[-76.69901,3.34805],[-76.69991,3.34952],[-76.70057,3.35234],[-76.7001,3.35439],[-76.70113,3.35547],[-76.70173,3.35665],[-76.70175,3.35858],[-76.69994,3.36133],[-76.69923,3.36152],[-76.69653,3.36411],[-76.69594,3.36639],[-76.69441,3.36771],[-76.69218,3.36677]]]}},{"type":"Feature","properties":{"id":"golondrinas","name":"Golondrinas"},"geometry":{"type":"Polygon","coordinates":[[[-76.55204,3.50943],[-76.54969,3.50949],[-76.54825,3.50727],[-76.54794,3.50636],[-76.54844,3.50593],[-76.54846,3.50467],[-76.54766,3.50283],[-76.54795,3.50226],[-76.54804,3.50002],[-76.54654,3.49677],[-76.545,3.49574],[-76.54438,3.49566],[-76.54345,3.49657],[-76.54269,3.49934],[-76.53981,3.50007],[-76.53854,3.49967],[-76.53733,3.5003],[-76.53497,3.49986],[-76.53398,3.50016],[-76.53333,3.49988],[-76.5333,3.49936],[-76.5325,3.49927],[-76.53212,3.49877],[-76.5312,3.49848],[-76.53023,3.49708],[-76.5296,3.49777],[-76.52836,3.49749],[-76.52833,3.49273],[-76.52799,3.49068],[-76.52838,3.48989],[-76.52935,3.48966],[-76.52984,3.48837],[-76.53019,3.48857],[-76.53132,3.4882],[-76.53158,3.48904],[-76.53129,3.48912],[-76.53122,3.49033],[-76.53246,3.48962],[-76.53274,3.49083],[-76.53331,3.49088],[-76.53424,3.49287],[-76.53551,3.49195],[-76.53487,3.49156],[-76.5349,3.49058],[-76.53577,3.48985],[-76.53501,3.48944],[-76.53403,3.48817],[-76.5353,3.48848],[-76.53547,3.48828],[-76.53506,3.48781],[-76.53439,3.4877],[-76.53444,3.48717],[-76.53331,3.48622],[-76.53335,3.48583],[-76.53275,3.4856],[-76.53274,3.48517],[-76.53186,3.48414],[-76.5304,3.48331],[-76.53034,3.48199],[-76.53095,3.48199],[-76.53124,3.48156],[-76.53101,3.48115],[-76.52924,3.48043],[-76.52926,3.47858],[-76.53047,3.47573],[-76.53225,3.47471],[-76.53217,3.47317],[-76.53138,3.47302],[-76.53109,3.47253],[-76.53151,3.47191],[-76.53131,3.47172],[-76.53179,3.4714],[-76.5322,3.47045],[-76.53287,3.47044],[-76.53317,3.46834],[-76.53448,3.46634],[-76.53441,3.465],[-76.53468,3.46523],[-76.53512,3.46492],[-76.53483,3.46435],[-76.53571,3.46375],[-76.5363,3.46265],[-76.53637,3.46185],[-76.53726,3.46055],[-76.53708,3.46009],[-76.53744,3.45886],[-76.53824,3.45862],[-76.53976,3.4546],[-76.53966,3.45421],[-76.53997,3.45406],[-76.53991,3.45265],[-76.5404,3.45182],[-76.54126,3.45218],[-76.54147,3.45261],[-76.54145,3.45357],[-76.54096,3.45392],[-76.54142,3.45587],[-76.54255,3.45583],[-76.54292,3.4552],[-76.54378,3.45518],[-76.5442,3.45633],[-76.54628,3.45734],[-76.54671,3.45717],[-76.54668,3.45677],[-76.54722,3.45703],[-76.54881,3.45882],[-76.54757,3.46091],[-76.54661,3.46169],[-76.54588,3.46343],[-76.54593,3.46533],[-76.54547,3.46639],[-76.54632,3.46666],[-76.54658,3.46787],[-76.54576,3.46942],[-76.54566,3.47053],[-76.54612,3.47332],[-76.54549,3.47466],[-76.546,3.47614],[-76.5452,3.47722],[-76.54524,3.47867],[-76.54438,3.47978],[-76.54429,3.48044],[-76.54537,3.48264],[-76.54517,3.48503],[-76.54556,3.48614],[-76.54439,3.4876],[-76.54418,3.48838],[-76.54337,3.48879],[-76.54313,3.48943],[-76.54402,3.49055],[-76.54479,3.49003],[-76.54544,3.4903],[-76.54612,3.48955],[-76.54679,3.48968],[-76.54768,3.49092],[-76.54958,3.49036],[-76.55026,3.49106],[-76.55092,3.49288],[-76.55163,3.49066],[-76.55206,3.49013],[-76.55191,3.48979],[-76.55235,3.48816],[-76.55322,3.48677],[-76.55403,3.48722],[-76.55421,3.48791],[-76.55524,3.48848],[-76.55684,3.48838],[-76.55807,3.48875],[-76.55837,3.48918],[-76.55931,3.48942],[-76.55984,3.49062],[-76.56097,3.49077],[-76.56057,3.49201],[-76.56122,3.49392],[-76.5608,3.49503],[-76.56119,3.49671],[-76.56082,3.49724],[-76.5613,3.49916],[-76.5609,3.49967],[-76.56102,3.50001],[-76.55994,3.50086],[-76.55874,3.50266],[-76.5579,3.50291],[-76.5568,3.50573],[-76.5554,3.50625],[-76.55391,3.50871],[-76.55344,3.51076],[-76.55273,3.51157],[-76.55235,3.51134],[-76.55236,3.50968],[-76.55204,3.50943]]]}}]}