{"type":"FeatureCollection","features":[{"type":"Feature","properties":{"id":"centro-historico","name":"Centro Histórico"},"geometry":{"type":"Polygon","coordinates":[[[-76.5376454,3.4506889],[-76.5368473,3.4482356],[-76.5348434,3.4493227],[-76.5330772,3.4494554],[-76.5295442,3.450897],[-76.5301849,3.4524412],[-76.5308462,3.4540316],[-76.5310953,3.4546127],[-76.5318667,3.454543],[-76.5326068,3.4535977],[-76.5357459,3.4521779],[-76.5376454,3.4506889]]]}},{"type":"Feature","properties":{"id":"avenida-6ta","name":"Avenida 6ta"},"geometry":{"type":"Polygon","coordinates":[[[-76.533767,3.4553174],[-76.5296895,3.4572261],[-76.5277739,3.462712],[-76.5273443,3.4655222],[-76.5260563,3.4678183],[-76.5244042,3.4728787],[-76.525809,3.4750449],[-76.5272293,3.4742665],[-76.529224,3.4710265],[-76.5315259,3.4685888],[-76.5319278,3.4670669],[-76.5316859,3.4655879],[-76.5328304,3.4616447],[-76.5353377,3.4565555],[-76.533767,3.4553174]]]}}]}